{
"type": "FeatureCollection",
"name": "ne10_northeast_land",
"crs": { "type": "name", "properties": { "name": "urn:ogc:def:crs:OGC:1.3:CRS84" } },
"features": [
{ "type": "Feature", "properties": { }, "geometry": { "type": "MultiPolygon", "coordinates": [ [ [ [ -73.33938414499994, 40.64459266700004 ], [ -73.318311166999933, 40.646661882000046 ], [ -73.269456782999953, 40.649295803000086 ], [ -73.248401601999944, 40.647720291000041 ], [ -73.256144375999952, 40.639051948000088 ], [ -73.3203241679999, 40.635055865000083 ], [ -73.389515753999945, 40.616766669000071 ], [ -73.574120034999908, 40.575093006000088 ], [ -73.566392956999948, 40.590320242000075 ], [ -73.443846537999946, 40.618936383000062 ], [ -73.400732991999917, 40.629640755000082 ], [ -73.377738167999951, 40.634617012000035 ], [ -73.357600610999953, 40.640327809000041 ], [ -73.33938414499994, 40.64459266700004 ] ] ], [ [ [ -73.041005011999914, 40.672634182000081 ], [ -73.147531704999949, 40.644313869000086 ], [ -73.245783048999897, 40.623806097000056 ], [ -73.297458645999939, 40.622622436000086 ], [ -73.305046084999901, 40.629921830000058 ], [ -73.25529154599991, 40.629668423000055 ], [ -73.218830254999943, 40.639634581000053 ], [ -73.176609963999908, 40.650997904000064 ], [ -73.104658647999941, 40.667220301000043 ], [ -73.040342970999916, 40.681995243000074 ], [ -73.01390540299991, 40.690456447000088 ], [ -72.948903813999948, 40.715385701000059 ], [ -72.914268560999915, 40.724527217000059 ], [ -72.881511091999926, 40.734399851000035 ], [ -72.832370115999936, 40.74774433400006 ], [ -72.779230118999919, 40.766843235000067 ], [ -72.757082747999902, 40.768802103000041 ], [ -72.757239253999899, 40.760085740000079 ], [ -72.80492102799991, 40.750840562000064 ], [ -72.831532355999911, 40.74164459800005 ], [ -72.913476531999947, 40.712901219000059 ], [ -72.991525844999899, 40.688177802000041 ], [ -73.041005011999914, 40.672634182000081 ] ] ], [ [ [ -73.8, 40.817260319206717 ], [ -73.79768506399995, 40.813193685000044 ], [ -73.8, 40.813027806626557 ], [ -73.8, 40.817260319206717 ] ] ], [ [ [ -72.087147589999915, 40.983425197000088 ], [ -72.159820115999935, 40.955267645000049 ], [ -72.219862084999932, 40.933422721000056 ], [ -72.316991699999903, 40.896260082000083 ], [ -72.37173417899993, 40.875840562000064 ], [ -72.406657948999907, 40.862072135000062 ], [ -72.441273566999939, 40.85500722900008 ], [ -72.460764126999948, 40.852606512000079 ], [ -72.448353644999941, 40.868231512000079 ], [ -72.447417772999927, 40.879095770000049 ], [ -72.459136522999927, 40.885362046000068 ], [ -72.48468990799995, 40.887396552000041 ], [ -72.496571417999917, 40.884100653000075 ], [ -72.500599738999938, 40.876044012000079 ], [ -72.49836178299995, 40.865790106000077 ], [ -72.491525844999899, 40.856024481000077 ], [ -72.490793423999946, 40.846869208000044 ], [ -72.502308722999942, 40.839056708000044 ], [ -72.541818813999953, 40.820502020000049 ], [ -72.605279860999929, 40.801330324000048 ], [ -72.704442139999912, 40.776177001000065 ], [ -72.723954719999938, 40.770419324000045 ], [ -72.732004360999952, 40.769964911000045 ], [ -72.737904425999943, 40.773789781000062 ], [ -72.731694441999934, 40.777648910000039 ], [ -72.725386817999947, 40.778378957000086 ], [ -72.678458505999913, 40.790999752000062 ], [ -72.650516448999952, 40.797455218000039 ], [ -72.663580017999948, 40.800773149000065 ], [ -72.679325000999938, 40.800939970000059 ], [ -72.700344896999923, 40.799570565000067 ], [ -72.726960578999922, 40.807789457000069 ], [ -72.743946776999906, 40.796839494000039 ], [ -72.765170690999923, 40.78314791400004 ], [ -72.801898582999911, 40.782710473000066 ], [ -72.828008902999898, 40.789708436000069 ], [ -72.813628709999932, 40.781602281000062 ], [ -72.817941860999952, 40.768418687000064 ], [ -72.832753058999913, 40.75962962400007 ], [ -72.85279214499991, 40.749423148000062 ], [ -72.879074698999943, 40.745685802000082 ], [ -72.889257383999905, 40.765638468000077 ], [ -72.910361898999952, 40.758273537000036 ], [ -72.926258917999917, 40.756415106000077 ], [ -72.94681688299994, 40.741891623000072 ], [ -73.012196417999917, 40.749579169000071 ], [ -73.022572394999941, 40.74758535400008 ], [ -73.033421404999899, 40.731434457000034 ], [ -73.054954202999909, 40.729211969000062 ], [ -73.083323361999931, 40.72465152400008 ], [ -73.099099901999921, 40.720394011000053 ], [ -73.114731929999948, 40.728049412000075 ], [ -73.129383547999907, 40.730135124000071 ], [ -73.140435726999954, 40.726237526000034 ], [ -73.142404751999948, 40.716131903000075 ], [ -73.145393247999948, 40.705219127000078 ], [ -73.158029800999941, 40.699741432000053 ], [ -73.179514126999948, 40.704697984000063 ], [ -73.211931149999941, 40.705641452000066 ], [ -73.233323368999947, 40.714504671000043 ], [ -73.247026461999951, 40.707036144000085 ], [ -73.261816899999928, 40.69559832200008 ], [ -73.275003328999901, 40.686929889000055 ], [ -73.317488744999935, 40.683573226000078 ], [ -73.372217035999938, 40.662365485000066 ], [ -73.402157394999904, 40.657719149000059 ], [ -73.504545765999922, 40.643829900000071 ], [ -73.561120824999932, 40.638048905000062 ], [ -73.627173416999938, 40.614397052000072 ], [ -73.643433137999921, 40.604904261000058 ], [ -73.65286478999991, 40.601351179000062 ], [ -73.664367163999941, 40.603760995000073 ], [ -73.655975527999942, 40.608905716000038 ], [ -73.655417366999927, 40.618040455000084 ], [ -73.667950370999904, 40.626014131000034 ], [ -73.695790167999917, 40.621527411000045 ], [ -73.710925150999913, 40.610211603000039 ], [ -73.71044687299991, 40.595114850000073 ], [ -73.606336608999925, 40.594086480000044 ], [ -73.575480501999948, 40.593206284000075 ], [ -73.581800787999953, 40.584486445000039 ], [ -73.707343238999897, 40.582794339000088 ], [ -73.752349146999904, 40.585650805000057 ], [ -73.768050210999945, 40.589643266000053 ], [ -73.8, 40.585405558335161 ], [ -73.8, 40.597031000562637 ], [ -73.789791963999903, 40.600291753000079 ], [ -73.776156962999949, 40.610607521000077 ], [ -73.76880590199994, 40.618545669000071 ], [ -73.771419689999902, 40.623318697000059 ], [ -73.780848758999923, 40.628897942000037 ], [ -73.798128849999898, 40.63805934700008 ], [ -73.8, 40.638878719860372 ], [ -73.8, 40.79465871304874 ], [ -73.778989037999906, 40.792176561000076 ], [ -73.757522417999951, 40.771111135000069 ], [ -73.750136660999942, 40.79134597400008 ], [ -73.764259992999939, 40.810031622000054 ], [ -73.755523240999935, 40.832790432000081 ], [ -73.739816860999952, 40.834336656000062 ], [ -73.729359503999945, 40.82408274900007 ], [ -73.721791144999941, 40.811224677000041 ], [ -73.714588995999918, 40.804795640000066 ], [ -73.702992316999939, 40.810166734000063 ], [ -73.696888800999943, 40.821885484000063 ], [ -73.700428839999915, 40.833604234000063 ], [ -73.73306230399993, 40.843695380000042 ], [ -73.731271938999953, 40.854437567000048 ], [ -73.720204230999911, 40.866237697000088 ], [ -73.705306454999914, 40.866744483000048 ], [ -73.674351139999942, 40.856755178000071 ], [ -73.665514773999917, 40.83845205700004 ], [ -73.653309699999909, 40.823919989000046 ], [ -73.646117115999914, 40.830866767000089 ], [ -73.653360533999944, 40.867785537000088 ], [ -73.63265498699991, 40.899585676000072 ], [ -73.56527346799993, 40.914514375000067 ], [ -73.520463477999897, 40.917601860000048 ], [ -73.512684699999909, 40.905096747000073 ], [ -73.515288865999935, 40.900417385000083 ], [ -73.52860364199995, 40.891722363000042 ], [ -73.540669920999903, 40.895338276000075 ], [ -73.549097950999908, 40.890985467000064 ], [ -73.534981193999897, 40.878627729000073 ], [ -73.51134759699994, 40.877349385000059 ], [ -73.509721879999915, 40.885694189000048 ], [ -73.5075714809999, 40.893637954000042 ], [ -73.49339404299991, 40.891991487000041 ], [ -73.492936759999907, 40.88164362100008 ], [ -73.479828253999926, 40.877244456000085 ], [ -73.47244388699994, 40.882367618000046 ], [ -73.475534850999907, 40.890738775000045 ], [ -73.468129035999937, 40.893622137000079 ], [ -73.469146287999934, 40.901312567000048 ], [ -73.485340949999909, 40.917914130000042 ], [ -73.494095341999923, 40.927052509000077 ], [ -73.485687170999938, 40.945625696000036 ], [ -73.462083915999926, 40.936382307000088 ], [ -73.431304490999935, 40.933294989000046 ], [ -73.440825975999928, 40.914658921000068 ], [ -73.432199673999946, 40.90766022300005 ], [ -73.420318162999934, 40.900417385000083 ], [ -73.405021252999916, 40.903954901000077 ], [ -73.388661261999914, 40.905951239000046 ], [ -73.370920376999948, 40.900091864000046 ], [ -73.358265753999945, 40.900417385000083 ], [ -73.354725714999915, 40.914129950000074 ], [ -73.360636864999947, 40.925092679000045 ], [ -73.378960844999938, 40.924464349000061 ], [ -73.399568848999934, 40.925418193000041 ], [ -73.410023566999939, 40.939886786000045 ], [ -73.407761527999924, 40.947162289000062 ], [ -73.401930500999924, 40.954404294000085 ], [ -73.395174359999942, 40.95436789200005 ], [ -73.379781533999903, 40.947012984000082 ], [ -73.374064543999907, 40.936073438000051 ], [ -73.350960147999899, 40.930856422000033 ], [ -73.325900791999914, 40.929256722000048 ], [ -73.293184226999927, 40.924703787000055 ], [ -73.26342844699991, 40.913623240000049 ], [ -73.243723110999952, 40.910264390000066 ], [ -73.235340949999909, 40.907822984000063 ], [ -73.224598761999914, 40.908270575000074 ], [ -73.178700324999909, 40.919012762000079 ], [ -73.159494594999899, 40.930243231000077 ], [ -73.148101365999935, 40.94562409100007 ], [ -73.152821417999917, 40.962469794000071 ], [ -73.135365363999938, 40.968451239000046 ], [ -73.113148566999939, 40.973456122000073 ], [ -73.098744269999941, 40.969509182000081 ], [ -73.104400193999936, 40.948797919000071 ], [ -73.091297980999911, 40.94835032800006 ], [ -73.082142706999946, 40.951605536000045 ], [ -73.079172329999949, 40.958563544000071 ], [ -73.084584113999938, 40.969305731000077 ], [ -73.076222684999948, 40.971944765000046 ], [ -73.048441013999934, 40.96301500900006 ], [ -73.008968787999947, 40.967066290000048 ], [ -72.900376287999904, 40.963255021000066 ], [ -72.830089225999927, 40.969175333000067 ], [ -72.781120910999903, 40.965079675000084 ], [ -72.696092176999912, 40.981017533000056 ], [ -72.628325975999928, 40.983587958000044 ], [ -72.60610917899993, 40.989935614000046 ], [ -72.541347084999927, 41.023818126000037 ], [ -72.471651720999944, 41.055953110000075 ], [ -72.453861659999916, 41.074423881000087 ], [ -72.445176584999899, 41.085848868000085 ], [ -72.412923105999937, 41.089811820000079 ], [ -72.38304602799991, 41.10891347900008 ], [ -72.358713344999899, 41.131130276000079 ], [ -72.343413865999935, 41.140651760000083 ], [ -72.289458787999934, 41.161159572000088 ], [ -72.275542772999927, 41.162624416000085 ], [ -72.25999915299991, 41.160834052000041 ], [ -72.247222459999932, 41.15570709800005 ], [ -72.241688605999911, 41.14679596600007 ], [ -72.246896938999953, 41.135443427000041 ], [ -72.260243292999917, 41.125026760000083 ], [ -72.276193813999953, 41.11705149900007 ], [ -72.289458787999934, 41.113348700000074 ], [ -72.304432745999918, 41.13194407800006 ], [ -72.343617316999939, 41.114203192000048 ], [ -72.41234290299991, 41.064886786000045 ], [ -72.415304877999915, 41.054447018000076 ], [ -72.399973110999952, 41.051336981000077 ], [ -72.39281165299991, 41.04718659100007 ], [ -72.38508053299995, 41.04446035400008 ], [ -72.390542936999907, 41.031470594000041 ], [ -72.412076657999933, 41.034132382000053 ], [ -72.431121424999901, 41.030403194000087 ], [ -72.437408006999931, 41.02570221600007 ], [ -72.438832160999937, 41.015977281000062 ], [ -72.435699022999927, 41.005886135000083 ], [ -72.433461066999939, 40.993231512000079 ], [ -72.43773352799991, 40.984198309000078 ], [ -72.446685350999928, 40.991400458000044 ], [ -72.454945441999939, 41.003729559000078 ], [ -72.466457344999924, 41.003826693000065 ], [ -72.472539347999941, 40.990394246000051 ], [ -72.494943813999953, 40.989813544000071 ], [ -72.499582485999952, 40.988959052000041 ], [ -72.510548404999952, 40.984899506000033 ], [ -72.520659959999932, 40.985174872000073 ], [ -72.53392195899994, 40.974852572000088 ], [ -72.543562169999916, 40.966622917000052 ], [ -72.543080206999946, 40.95656972900008 ], [ -72.562442498999928, 40.944198054000083 ], [ -72.580044077999901, 40.932878172000073 ], [ -72.599562218999949, 40.930714996000063 ], [ -72.615937256999928, 40.92771872700007 ], [ -72.624623175999943, 40.907822984000063 ], [ -72.613433397999927, 40.908880927000041 ], [ -72.602853969999899, 40.908392645000049 ], [ -72.593006964999915, 40.905829169000071 ], [ -72.58429928299995, 40.900417385000083 ], [ -72.563588019999941, 40.912380276000079 ], [ -72.543934699999909, 40.910101630000042 ], [ -72.523833787999934, 40.903021552000041 ], [ -72.501361214999918, 40.897389032000035 ], [ -72.480846811999925, 40.897937460000037 ], [ -72.457142706999946, 40.910264390000066 ], [ -72.449882699999932, 40.91979858600007 ], [ -72.443714972999942, 40.931748765000066 ], [ -72.441029425999943, 40.942979234000063 ], [ -72.429299646999937, 40.946945601000039 ], [ -72.408179945999905, 40.950647239000034 ], [ -72.386131264999904, 40.971808593000048 ], [ -72.367184446999943, 40.994600253000044 ], [ -72.34211178299995, 40.999823309000078 ], [ -72.326538788999926, 40.999224229000049 ], [ -72.321105165999938, 41.005910246000042 ], [ -72.332091667999919, 41.030699717000061 ], [ -72.321522589999915, 41.035834052000041 ], [ -72.306683243999942, 41.035524809000037 ], [ -72.301261950999901, 41.020346417000042 ], [ -72.29845625899992, 41.006000018000066 ], [ -72.270104262999951, 41.002427612000076 ], [ -72.263445855999919, 41.015454601000044 ], [ -72.248633136999899, 41.017633218000071 ], [ -72.242543728999919, 41.02907517500006 ], [ -72.240210863999948, 41.037788731000035 ], [ -72.233709181999927, 41.044065751000062 ], [ -72.213785742999903, 41.039804036000078 ], [ -72.186752243999933, 41.009163344000058 ], [ -72.18355467899994, 41.027821473000074 ], [ -72.180043097999942, 41.047064520000049 ], [ -72.166865938999933, 41.056647412000075 ], [ -72.155384894999941, 41.05499909100007 ], [ -72.122873501999948, 41.017401434000078 ], [ -72.118153449999909, 41.006862697000088 ], [ -72.108998175999943, 41.00141022300005 ], [ -72.088042772999927, 41.004828192000048 ], [ -72.049875454999949, 41.017686265000066 ], [ -72.011708136999914, 41.04210032800006 ], [ -71.992746548999946, 41.049627997000073 ], [ -71.975707177999936, 41.043397001000073 ], [ -71.958752629999935, 41.046282747000078 ], [ -71.958067816999915, 41.069718290000083 ], [ -71.945304415999942, 41.073475417000054 ], [ -71.933427361999918, 41.064925487000039 ], [ -71.918934699999909, 41.058661200000074 ], [ -71.918934699999909, 41.064886786000045 ], [ -71.930904400999907, 41.078790580000089 ], [ -71.903300180999906, 41.084672137000041 ], [ -71.875111456999946, 41.07571035400008 ], [ -71.857411261999914, 41.07172272300005 ], [ -71.864898240999935, 41.062079169000071 ], [ -71.884969602999945, 41.045397036000054 ], [ -71.929511641999909, 41.037847875000068 ], [ -72.008872330999907, 41.007385661000058 ], [ -72.087147589999915, 40.983425197000088 ] ] ], [ [ [ -72.282389982999916, 41.04788112600005 ], [ -72.275660300999903, 41.039271147000079 ], [ -72.27552668699991, 41.031833217000042 ], [ -72.286253141999907, 41.034203040000079 ], [ -72.297891043999925, 41.041522594000071 ], [ -72.317750215999922, 41.048753110000064 ], [ -72.340762692999931, 41.048506604000067 ], [ -72.358797710999909, 41.045830657000067 ], [ -72.371305754999923, 41.054991786000073 ], [ -72.372391265999909, 41.068617943000049 ], [ -72.361916808999922, 41.079892035000057 ], [ -72.341559071999939, 41.090651640000033 ], [ -72.340158782999936, 41.103683108000041 ], [ -72.327844947999949, 41.105055633000063 ], [ -72.322713373999932, 41.094572403000086 ], [ -72.305248736999943, 41.084218047000036 ], [ -72.295336769999949, 41.081841638000071 ], [ -72.28048150099994, 41.078894846000082 ], [ -72.282769755999936, 41.068953265000061 ], [ -72.278469953999945, 41.058459579000044 ], [ -72.282389982999916, 41.04788112600005 ] ] ], [ [ [ -72.0927894699999, 41.061478812000075 ], [ -72.100822928999946, 41.054246244000069 ], [ -72.101020651999931, 41.06754587100005 ], [ -72.102584503999935, 41.081343332000074 ], [ -72.108138394999912, 41.09050581200006 ], [ -72.122438565999914, 41.092932896000036 ], [ -72.136025491999931, 41.092807360000052 ], [ -72.141520829999934, 41.096849278000036 ], [ -72.134807581999951, 41.102026113000079 ], [ -72.128131927999902, 41.109246518000077 ], [ -72.131021871999906, 41.120472208000081 ], [ -72.109071842999924, 41.10686088500006 ], [ -72.091353886999912, 41.101899546000084 ], [ -72.0784307159999, 41.099964284000066 ], [ -72.079033592999906, 41.094844765000062 ], [ -72.085092645999907, 41.091725159000077 ], [ -72.084971027999927, 41.083542954000052 ], [ -72.081450656999948, 41.074878819000048 ], [ -72.086100767999937, 41.068189192000034 ], [ -72.0927894699999, 41.061478812000075 ] ] ], [ [ [ -71.613747606999937, 41.155180874000052 ], [ -71.612717179999947, 41.167466984000043 ], [ -71.608024977999946, 41.180589387000055 ], [ -71.597486495999931, 41.187669262000043 ], [ -71.591216600999928, 41.197333075000074 ], [ -71.58267167899993, 41.204046942000048 ], [ -71.580433722999942, 41.214789130000042 ], [ -71.579199929999902, 41.225571522000052 ], [ -71.57258053299995, 41.22882721600007 ], [ -71.56704667899993, 41.224839585000041 ], [ -71.553541122999945, 41.214571842000055 ], [ -71.559473733999937, 41.201024044000064 ], [ -71.566151495999918, 41.193752346000053 ], [ -71.559925910999937, 41.183742580000057 ], [ -71.551869269999941, 41.175726630000042 ], [ -71.54447326199994, 41.162887597000065 ], [ -71.549094582999942, 41.152042072000086 ], [ -71.571571694999932, 41.14976927500004 ], [ -71.599550269999952, 41.145778973000063 ], [ -71.613747606999937, 41.155180874000052 ] ] ], [ [ [ -71.953888265999922, 41.286710664000054 ], [ -71.939756728999953, 41.292197055000088 ], [ -71.920732329999908, 41.291396489000078 ], [ -71.928000764999922, 41.281978830000071 ], [ -71.94657542899995, 41.27656789200006 ], [ -71.97015291699995, 41.273622163000084 ], [ -71.988328753999951, 41.260085361000051 ], [ -71.998733526999899, 41.251666100000079 ], [ -72.022806512999921, 41.25348677900007 ], [ -72.038797679999902, 41.249446826000053 ], [ -72.036563179999916, 41.260865196000054 ], [ -72.026228000999936, 41.266903798000044 ], [ -72.022129892999942, 41.276858134000065 ], [ -72.011349225999936, 41.276207975000034 ], [ -72.003362312999911, 41.267012781000062 ], [ -71.998077193999904, 41.274082014000044 ], [ -71.994003807999945, 41.283080978000044 ], [ -71.976809354999943, 41.284705958000075 ], [ -71.953888265999922, 41.286710664000054 ] ] ], [ [ [ -70.948503408999898, 41.414123560000064 ], [ -70.940677533999917, 41.420774915000038 ], [ -70.926029890999928, 41.428916850000064 ], [ -70.911335139999949, 41.429705943000044 ], [ -70.897646195999926, 41.436371808000047 ], [ -70.8711762289999, 41.438669510000068 ], [ -70.859464515999946, 41.448265053000057 ], [ -70.856493551999904, 41.443127761000085 ], [ -70.848598487999936, 41.434332142000073 ], [ -70.854453583999941, 41.429167623000069 ], [ -70.875983758999951, 41.42248052900004 ], [ -70.892653934999942, 41.422422083000072 ], [ -70.906385821999947, 41.422371097000052 ], [ -70.927916692999929, 41.418619697000054 ], [ -70.938665493999906, 41.411220055000058 ], [ -70.948503408999898, 41.414123560000064 ] ] ], [ [ [ -71.400990363999938, 41.468451239000046 ], [ -71.39517167899993, 41.490912177000041 ], [ -71.398793097999942, 41.502875067000048 ], [ -71.392201300999943, 41.505926825000074 ], [ -71.389475063999953, 41.50922272300005 ], [ -71.387806769999941, 41.512884833000044 ], [ -71.384429490999935, 41.517157294000071 ], [ -71.395334438999953, 41.526434637000079 ], [ -71.392689581999946, 41.542669989000046 ], [ -71.377674933999913, 41.577948309000078 ], [ -71.368397589999915, 41.576239325000074 ], [ -71.362416144999941, 41.572455145000049 ], [ -71.359120245999918, 41.566392320000034 ], [ -71.357818162999934, 41.558172919000071 ], [ -71.357289191999939, 41.53656647300005 ], [ -71.360422329999949, 41.514553127000056 ], [ -71.365630662999934, 41.495347398000035 ], [ -71.371449347999942, 41.482367255000042 ], [ -71.376088019999941, 41.476996161000045 ], [ -71.384144660999937, 41.469468492000033 ], [ -71.392648891999897, 41.463283596000053 ], [ -71.398793097999942, 41.461900132000039 ], [ -71.400990363999938, 41.468451239000046 ] ] ], [ [ [ -71.872141079999949, 41.339260158000059 ], [ -71.885365363999938, 41.344631252000056 ], [ -71.898060675999943, 41.346502997000073 ], [ -71.963246222999942, 41.345363674000055 ], [ -71.97288977799991, 41.343695380000042 ], [ -72.036244269999941, 41.317857164000088 ], [ -72.083404100999928, 41.352036851000037 ], [ -72.095122850999928, 41.346096096000053 ], [ -72.101144985999952, 41.322455145000049 ], [ -72.110707160999937, 41.311102606000077 ], [ -72.13540605399993, 41.312079169000071 ], [ -72.168039516999897, 41.322455145000049 ], [ -72.194325324999909, 41.323797919000071 ], [ -72.200062628999945, 41.297430731000077 ], [ -72.226918097999942, 41.310695705000057 ], [ -72.287953253999945, 41.282945054000038 ], [ -72.319894985999952, 41.293687242000033 ], [ -72.327015753999945, 41.298732815000051 ], [ -72.341053839999915, 41.30337148600006 ], [ -72.347157355999911, 41.307318427000041 ], [ -72.350412563999953, 41.314642645000049 ], [ -72.347808397999927, 41.321600653000075 ], [ -72.34398352799991, 41.329291083000044 ], [ -72.343413865999935, 41.338364976000037 ], [ -72.348378058999913, 41.348334052000041 ], [ -72.358225063999953, 41.357977606000077 ], [ -72.372710740999935, 41.364732164000088 ], [ -72.391835089999915, 41.366278387000079 ], [ -72.380197719999899, 41.350083726000037 ], [ -72.363636847999942, 41.336900132000039 ], [ -72.354359503999945, 41.321234442000048 ], [ -72.364572719999899, 41.297430731000077 ], [ -72.354888475999928, 41.291449286000045 ], [ -72.350900844999899, 41.289984442000048 ], [ -72.36978105399993, 41.276597398000035 ], [ -72.390777147999927, 41.277777411000045 ], [ -72.433461066999939, 41.289984442000048 ], [ -72.452626105999911, 41.287909247000073 ], [ -72.475087042999917, 41.281073309000078 ], [ -72.495269334999932, 41.270331122000073 ], [ -72.507923956999946, 41.256415106000077 ], [ -72.513335740999935, 41.261053778000075 ], [ -72.516916469999899, 41.262925523000035 ], [ -72.519520636999914, 41.264960028000075 ], [ -72.522206183999913, 41.27016836100006 ], [ -72.529652472999942, 41.27016836100006 ], [ -72.540638800999943, 41.263657945000034 ], [ -72.581898566999939, 41.27875397300005 ], [ -72.604807094999899, 41.283758856000077 ], [ -72.661773240999935, 41.27407461100006 ], [ -72.671050584999932, 41.267482815000051 ], [ -72.678781704999949, 41.260484117000033 ], [ -72.686675584999932, 41.256415106000077 ], [ -72.699330206999946, 41.256577867000033 ], [ -72.709095831999946, 41.260565497000073 ], [ -72.717884894999941, 41.265855210000041 ], [ -72.727650519999941, 41.27016836100006 ], [ -72.741322394999941, 41.272162177000041 ], [ -72.779449022999927, 41.27016836100006 ], [ -72.789784308999913, 41.267320054000038 ], [ -72.806019660999937, 41.257757880000042 ], [ -72.813343878999945, 41.259588934000078 ], [ -72.826511668999899, 41.25650801200004 ], [ -72.842892007999922, 41.258471221000036 ], [ -72.856066570999928, 41.245418825000058 ], [ -72.892426694999926, 41.244974743000057 ], [ -72.895725820999928, 41.255582446000062 ], [ -72.895253058999913, 41.265855210000041 ], [ -72.903146938999953, 41.277167059000078 ], [ -72.905832485999952, 41.300523179000038 ], [ -72.909982876999948, 41.305121161000045 ], [ -72.918934699999909, 41.298651434000078 ], [ -72.927357550999943, 41.288804429000038 ], [ -72.930043097999942, 41.283758856000077 ], [ -72.967274542999917, 41.256415106000077 ], [ -72.992909308999913, 41.228989976000037 ], [ -73.002023891999897, 41.221747137000079 ], [ -73.013827767999942, 41.206723785000065 ], [ -73.038437612999928, 41.205227028000081 ], [ -73.053537563999953, 41.211737372000073 ], [ -73.063710089999915, 41.204779364000046 ], [ -73.085519985999952, 41.197007554000038 ], [ -73.094471808999913, 41.191310940000051 ], [ -73.10374915299991, 41.180365302000041 ], [ -73.107411261999914, 41.174709377000056 ], [ -73.110591825999904, 41.161942588000045 ], [ -73.108485080999912, 41.14870869300006 ], [ -73.134237146999908, 41.147207262000052 ], [ -73.155086966999932, 41.158858700000053 ], [ -73.164338142999952, 41.165109096000037 ], [ -73.170109662999948, 41.169571071000064 ], [ -73.184067700999947, 41.174108750000073 ], [ -73.184277537999947, 41.161773039000082 ], [ -73.208914855999922, 41.156722824000042 ], [ -73.215809699999909, 41.163031317000048 ], [ -73.219105597999942, 41.166001695000034 ], [ -73.221099412999934, 41.167141018000052 ], [ -73.225168423999946, 41.163275458000044 ], [ -73.224232249999943, 41.149812032000057 ], [ -73.227855536999925, 41.142795121000063 ], [ -73.233800505999909, 41.136681440000075 ], [ -73.244462403999933, 41.127966256000036 ], [ -73.262127241999906, 41.120185131000085 ], [ -73.271521241999949, 41.117622037000046 ], [ -73.278338650999899, 41.130017491000046 ], [ -73.286452311999938, 41.134492373000057 ], [ -73.2936483229999, 41.123094779000041 ], [ -73.301933495999947, 41.116990281000085 ], [ -73.315993464999906, 41.115338998000084 ], [ -73.332381084999952, 41.113712437000061 ], [ -73.350026931999935, 41.106797636000067 ], [ -73.36406801499993, 41.106025200000033 ], [ -73.371937628999945, 41.101955471000053 ], [ -73.379750128999945, 41.100165106000077 ], [ -73.423736131999931, 41.077704169000071 ], [ -73.437611456999946, 41.073065497000073 ], [ -73.474598761999914, 41.054754950000074 ], [ -73.485218878999945, 41.053859768000052 ], [ -73.504198604999942, 41.042567679000058 ], [ -73.523211028999924, 41.021490678000077 ], [ -73.537123985999926, 41.031278356000087 ], [ -73.546701626999948, 41.028876044000071 ], [ -73.564849412999934, 41.018947658000059 ], [ -73.589993528999912, 41.014791381000066 ], [ -73.596875070999943, 41.023670370000048 ], [ -73.603923338999948, 41.022815711000078 ], [ -73.611147364999908, 41.011336205000077 ], [ -73.619367333999946, 41.008738009000069 ], [ -73.634581963999949, 41.00705507300006 ], [ -73.641700113999946, 41.001773909000065 ], [ -73.642864695314813, 41.001065483132464 ], [ -73.650257941999939, 40.996568101000037 ], [ -73.648019985999952, 40.992092190000051 ], [ -73.653146938999953, 40.982123114000046 ], [ -73.674387173999946, 40.958807684000078 ], [ -73.676991339999915, 40.954779364000046 ], [ -73.698719855999911, 40.954779364000046 ], [ -73.710764126999948, 40.953029690000051 ], [ -73.720366990999935, 40.947007554000038 ], [ -73.764393683999913, 40.910101630000042 ], [ -73.777414516999897, 40.894110419000071 ], [ -73.782826300999943, 40.876044012000079 ], [ -73.788156704999949, 40.871771552000041 ], [ -73.799916144999941, 40.872259833000044 ], [ -73.8, 40.872251128329573 ], [ -73.8, 44.6 ], [ -73.373428264234875, 44.6 ], [ -71.552297438596568, 44.6 ], [ -71.033541948869399, 44.6 ], [ -68.3, 44.6 ], [ -68.3, 44.528297033741886 ], [ -68.308135545999903, 44.529038804000038 ], [ -68.313710089999915, 44.510484117000033 ], [ -68.3, 44.505752315728827 ], [ -68.3, 44.451449458891034 ], [ -68.317087368999921, 44.451198635000083 ], [ -68.337635870999918, 44.455104885000083 ], [ -68.354685024999924, 44.466091213000084 ], [ -68.361927863999938, 44.445827541000085 ], [ -68.386463995999918, 44.424343166000085 ], [ -68.382598436999899, 44.410834052000041 ], [ -68.409291144999941, 44.404649156000062 ], [ -68.422963019999941, 44.405137437000064 ], [ -68.426706508999928, 44.417222398000035 ], [ -68.423329230999911, 44.470974026000079 ], [ -68.43187415299991, 44.486599026000079 ], [ -68.449940558999913, 44.49367910400008 ], [ -68.478220180999926, 44.493394273000035 ], [ -68.459828253999945, 44.462103583000044 ], [ -68.457753058999913, 44.448716539000088 ], [ -68.459502732999908, 44.44289785400008 ], [ -68.462839321999923, 44.438666083000044 ], [ -68.464466925999943, 44.434271552000041 ], [ -68.461130337999919, 44.428208726000037 ], [ -68.456044074999909, 44.424343166000085 ], [ -68.451893683999913, 44.422308661000045 ], [ -68.449696417999917, 44.418727932000081 ], [ -68.450306769999941, 44.410834052000041 ], [ -68.455189581999946, 44.40180084800005 ], [ -68.464792446999923, 44.389837958000044 ], [ -68.47406979099992, 44.382432359000063 ], [ -68.478220180999926, 44.387233791000085 ], [ -68.478138800999943, 44.410834052000041 ], [ -68.480091925999943, 44.421616929000038 ], [ -68.485056118999921, 44.431911526000079 ], [ -68.504424607999908, 44.413356838000084 ], [ -68.525990363999938, 44.405625718000067 ], [ -68.549427863999938, 44.405747789000088 ], [ -68.574411587999919, 44.410834052000041 ], [ -68.563018357999908, 44.400580145000049 ], [ -68.551503058999913, 44.377224026000079 ], [ -68.543080206999946, 44.366156317000048 ], [ -68.541778123999904, 44.356919664000088 ], [ -68.556141730999911, 44.330023505000042 ], [ -68.560170050999943, 44.318345445000034 ], [ -68.555856899999924, 44.30617910400008 ], [ -68.5459285149999, 44.302435614000046 ], [ -68.534535285999937, 44.30064524900007 ], [ -68.525990363999938, 44.29478587400007 ], [ -68.520863410999937, 44.280015367000033 ], [ -68.523182745999918, 44.269558010000083 ], [ -68.532012498999904, 44.266628322000088 ], [ -68.546498175999943, 44.274278062000064 ], [ -68.541005011999914, 44.263698635000083 ], [ -68.533640102999925, 44.256374416000085 ], [ -68.524362758999928, 44.250921942000048 ], [ -68.512928839999915, 44.246364651000079 ], [ -68.541371222999942, 44.237331447000088 ], [ -68.633493618999921, 44.296250718000067 ], [ -68.666940883999928, 44.298203843000067 ], [ -68.683705206999946, 44.29446035400008 ], [ -68.7041316399999, 44.305121161000045 ], [ -68.732045050999943, 44.328314520000049 ], [ -68.756214972999942, 44.334458726000037 ], [ -68.791778123999904, 44.316392320000034 ], [ -68.820790167999917, 44.314642645000049 ], [ -68.811797654999907, 44.351589260000083 ], [ -68.803944464999915, 44.369248765000066 ], [ -68.789784308999913, 44.376695054000038 ], [ -68.780262824999909, 44.37453847900008 ], [ -68.770863410999937, 44.365179755000042 ], [ -68.762806769999941, 44.363063869000086 ], [ -68.753285285999937, 44.367539781000062 ], [ -68.754261847999942, 44.377875067000048 ], [ -68.760446743999921, 44.389349677000041 ], [ -68.766224738999938, 44.397202867000033 ], [ -68.753203904999907, 44.404974677000041 ], [ -68.741973436999899, 44.414252020000049 ], [ -68.735300258999928, 44.414658921000068 ], [ -68.714792446999923, 44.405300197000088 ], [ -68.704782680999926, 44.404038804000038 ], [ -68.699330206999946, 44.40969472900008 ], [ -68.717396613999938, 44.431586005000042 ], [ -68.718373175999943, 44.445583401000079 ], [ -68.756214972999942, 44.430894273000035 ], [ -68.766224738999938, 44.424505927000041 ], [ -68.784413214999915, 44.402777411000045 ], [ -68.795847133999928, 44.392564195000034 ], [ -68.807118292999917, 44.390977281000062 ], [ -68.816192186999899, 44.402085679000038 ], [ -68.814401821999923, 44.417995510000083 ], [ -68.807240363999938, 44.434108791000085 ], [ -68.800323045999903, 44.445583401000079 ], [ -68.796579555999926, 44.448513088000084 ], [ -68.784657355999911, 44.453843492000033 ], [ -68.779245571999923, 44.458685614000046 ], [ -68.776641404999907, 44.464951890000066 ], [ -68.774932420999903, 44.480210679000038 ], [ -68.772979295999903, 44.486558335000041 ], [ -68.742624477999925, 44.537298895000049 ], [ -68.746205206999946, 44.554877020000049 ], [ -68.779245571999923, 44.561712958000044 ], [ -68.795847133999928, 44.561997789000088 ], [ -68.801625128999945, 44.560288804000038 ], [ -68.807118292999917, 44.534369208000044 ], [ -68.827626105999911, 44.479112046000068 ], [ -68.821400519999941, 44.478461005000042 ], [ -68.807118292999917, 44.472927151000079 ], [ -68.824696417999917, 44.461045640000066 ], [ -68.845244920999903, 44.453802802000041 ], [ -68.857126430999926, 44.456081447000088 ], [ -68.848133917999917, 44.472927151000079 ], [ -68.86274166599992, 44.475368557000081 ], [ -68.879628058999913, 44.468532619000086 ], [ -68.90648352799991, 44.448716539000088 ], [ -68.919422980999911, 44.441392320000034 ], [ -68.965443488999938, 44.431911526000079 ], [ -68.986602342999902, 44.421169338000084 ], [ -68.982289191999939, 44.41360097900008 ], [ -68.971913214999915, 44.40578847900008 ], [ -68.975087042999917, 44.39406972900008 ], [ -68.972767706999946, 44.383815822000088 ], [ -68.944569464999915, 44.348822333000044 ], [ -68.937489386999914, 44.331976630000042 ], [ -68.94554602799991, 44.317165432000081 ], [ -68.964100714999915, 44.307806708000044 ], [ -68.98460852799991, 44.301214911000045 ], [ -68.998972133999928, 44.29478587400007 ], [ -69.021595831999946, 44.247788804000038 ], [ -69.036244269999941, 44.232611395000049 ], [ -69.053578253999945, 44.184922593000067 ], [ -69.067901170999903, 44.158962307000081 ], [ -69.077748175999943, 44.144964911000045 ], [ -69.088327602999925, 44.136501369000086 ], [ -69.088327602999925, 44.13031647300005 ], [ -69.082875128999945, 44.115261135000083 ], [ -69.089548305999926, 44.098089911000045 ], [ -69.086903449999909, 44.086696682000081 ], [ -69.053578253999945, 44.08930084800005 ], [ -69.065215623999904, 44.067613023000035 ], [ -69.075795050999943, 44.052516994000086 ], [ -69.091501430999926, 44.043809312000064 ], [ -69.118763800999943, 44.04087962400007 ], [ -69.126210089999915, 44.031032619000086 ], [ -69.130645311999899, 44.011745510000083 ], [ -69.14203854099992, 43.998724677000041 ], [ -69.170277472999942, 44.007432359000063 ], [ -69.171823696999923, 43.99717845300006 ], [ -69.175892706999946, 43.991400458000044 ], [ -69.182484503999945, 43.990016994000086 ], [ -69.191395636999914, 43.993109442000048 ], [ -69.199574347999942, 43.98187897300005 ], [ -69.203643357999908, 43.970322984000063 ], [ -69.201649542999917, 43.959987697000088 ], [ -69.191395636999914, 43.952175197000088 ], [ -69.227040167999917, 43.935248114000046 ], [ -69.23851477799991, 43.931667385000083 ], [ -69.258005337999919, 43.928005276000079 ], [ -69.263417120999918, 43.929917710000041 ], [ -69.259632941999939, 43.955267645000049 ], [ -69.229237433999913, 43.990993557000081 ], [ -69.219471808999913, 44.008490302000041 ], [ -69.23851477799991, 44.007432359000063 ], [ -69.298858201999906, 43.950384833000044 ], [ -69.310536261999914, 43.941636460000041 ], [ -69.313750779999907, 43.954331773000035 ], [ -69.303171352999925, 43.981227932000081 ], [ -69.313954230999911, 43.986273505000042 ], [ -69.328317837999919, 43.983384507000039 ], [ -69.353301561999899, 43.972438869000086 ], [ -69.369496222999942, 43.972642320000034 ], [ -69.353260870999918, 43.994655666000085 ], [ -69.347157355999911, 44.007757880000042 ], [ -69.35179602799991, 44.013617255000042 ], [ -69.369414842999902, 44.015855210000041 ], [ -69.3701472649999, 44.021511135000083 ], [ -69.35179602799991, 44.037543036000045 ], [ -69.347279425999943, 44.050767320000034 ], [ -69.354196743999921, 44.060492255000042 ], [ -69.3642878899999, 44.060532945000034 ], [ -69.369496222999942, 44.044663804000038 ], [ -69.376576300999943, 44.036729234000063 ], [ -69.390980597999942, 44.031927802000041 ], [ -69.402211066999939, 44.026597398000035 ], [ -69.394886847999942, 44.002427476000037 ], [ -69.407704230999911, 43.994330145000049 ], [ -69.424265102999925, 43.99164459800005 ], [ -69.430368618999921, 43.993109442000048 ], [ -69.440907355999911, 43.981390692000048 ], [ -69.447783982999908, 43.967556057000081 ], [ -69.478789842999902, 43.88031647300005 ], [ -69.494130011999914, 43.85110097900008 ], [ -69.512928839999915, 43.834906317000048 ], [ -69.514352993999921, 43.855658270000049 ], [ -69.521677212999919, 43.870347398000035 ], [ -69.529896613999938, 43.883002020000049 ], [ -69.533965623999904, 43.89756907800006 ], [ -69.540231899999924, 43.89756907800006 ], [ -69.545440232999908, 43.883286851000037 ], [ -69.547596808999913, 43.867865302000041 ], [ -69.547637498999904, 43.834906317000048 ], [ -69.561268683999913, 43.849107164000088 ], [ -69.553822394999941, 43.85655345300006 ], [ -69.569081183999913, 43.868394273000035 ], [ -69.570505337999919, 43.877915757000039 ], [ -69.565419074999909, 43.886989651000079 ], [ -69.561268683999913, 43.89756907800006 ], [ -69.559803839999915, 43.904079494000086 ], [ -69.55492102799991, 43.915798244000086 ], [ -69.553822394999941, 43.920843817000048 ], [ -69.556019660999937, 43.927679755000042 ], [ -69.565378383999928, 43.934271552000041 ], [ -69.567494269999941, 43.941636460000041 ], [ -69.558867967999902, 43.964585679000038 ], [ -69.529042120999918, 44.004380601000037 ], [ -69.533965623999904, 44.02102285400008 ], [ -69.544870571999923, 44.011948960000041 ], [ -69.554066535999937, 43.998561916000085 ], [ -69.567494269999941, 43.972642320000034 ], [ -69.580555792999917, 43.957017320000034 ], [ -69.585804816999939, 43.948472398000035 ], [ -69.584584113999938, 43.941636460000041 ], [ -69.581817186999899, 43.934556382000039 ], [ -69.58421790299991, 43.925767320000034 ], [ -69.58930416599992, 43.917344468000067 ], [ -69.5947566399999, 43.911159572000088 ], [ -69.589344855999911, 43.904811916000085 ], [ -69.587513800999943, 43.897243557000081 ], [ -69.58930416599992, 43.889634507000039 ], [ -69.5947566399999, 43.883246161000045 ], [ -69.584828253999945, 43.870713609000063 ], [ -69.577910936999899, 43.855658270000049 ], [ -69.576039191999939, 43.83897532800006 ], [ -69.581166144999941, 43.82180410400008 ], [ -69.592396613999938, 43.80772532800006 ], [ -69.596140102999925, 43.815904039000088 ], [ -69.5947566399999, 43.849107164000088 ], [ -69.609893357999908, 43.839585679000038 ], [ -69.62446041599992, 43.838405666000085 ], [ -69.639637824999909, 43.844468492000033 ], [ -69.656931118999921, 43.85655345300006 ], [ -69.668894008999928, 43.86705149900007 ], [ -69.670114712999919, 43.873561916000085 ], [ -69.649403449999909, 43.89756907800006 ], [ -69.653797980999911, 43.904974677000041 ], [ -69.655018683999913, 43.910508531000062 ], [ -69.653431769999941, 43.916205145000049 ], [ -69.649403449999909, 43.924261786000045 ], [ -69.642445441999939, 43.921250718000067 ], [ -69.629343227999925, 43.919216213000084 ], [ -69.622792120999918, 43.91742584800005 ], [ -69.631214972999942, 43.92922597900008 ], [ -69.642689581999946, 43.93345774900007 ], [ -69.652617967999902, 43.93899160400008 ], [ -69.656931118999921, 43.955267645000049 ], [ -69.653675910999937, 43.967759507000039 ], [ -69.636423305999926, 44.003688869000086 ], [ -69.630116339999915, 44.008042710000041 ], [ -69.619170701999906, 44.017523505000042 ], [ -69.615101691999939, 44.025905666000085 ], [ -69.629587368999921, 44.027289130000042 ], [ -69.643177863999938, 44.020982164000088 ], [ -69.656971808999913, 44.00922272300005 ], [ -69.749704555999926, 43.900661526000079 ], [ -69.75922604099992, 43.886419989000046 ], [ -69.752674933999913, 43.879136460000041 ], [ -69.740264451999906, 43.87486399900007 ], [ -69.731963670999903, 43.869574286000045 ], [ -69.729725714999915, 43.855943101000037 ], [ -69.73265540299991, 43.841905015000066 ], [ -69.746286587999919, 43.814398505000042 ], [ -69.735869920999903, 43.820583401000079 ], [ -69.722401495999918, 43.844224351000037 ], [ -69.712147589999915, 43.849107164000088 ], [ -69.704701300999943, 43.842027085000041 ], [ -69.70726477799991, 43.826931057000081 ], [ -69.730742967999902, 43.775905666000085 ], [ -69.744984503999945, 43.758775132000039 ], [ -69.758005337999919, 43.759507554000038 ], [ -69.766794399999924, 43.787624416000085 ], [ -69.766224738999938, 43.794867255000042 ], [ -69.763620571999923, 43.798936265000066 ], [ -69.760690883999928, 43.801621812000064 ], [ -69.759266730999911, 43.804429429000038 ], [ -69.761463995999918, 43.811550197000088 ], [ -69.766306118999921, 43.813666083000044 ], [ -69.771188930999926, 43.813666083000044 ], [ -69.773548956999946, 43.814398505000042 ], [ -69.780384894999941, 43.862779039000088 ], [ -69.783640102999925, 43.873480536000045 ], [ -69.790720180999926, 43.886704820000034 ], [ -69.794056769999941, 43.89756907800006 ], [ -69.795277472999942, 43.910427151000079 ], [ -69.794870571999923, 43.922145901000079 ], [ -69.795684373999904, 43.93345774900007 ], [ -69.800892706999946, 43.944688218000067 ], [ -69.80337480399993, 43.964911200000074 ], [ -69.80728105399993, 43.983140367000033 ], [ -69.804676886999914, 43.997463283000059 ], [ -69.802072719999899, 44.014390367000033 ], [ -69.790353969999899, 44.028713283000059 ], [ -69.781239386999914, 44.036525783000059 ], [ -69.770822719999899, 44.045640367000033 ], [ -69.76821855399993, 44.053452867000033 ], [ -69.76821855399993, 44.058661200000074 ], [ -69.774728969999899, 44.059963283000059 ], [ -69.782541469999899, 44.057359117000033 ], [ -69.789051886999914, 44.049546617000033 ], [ -69.79946855399993, 44.044338283000059 ], [ -69.817697719999899, 44.036525783000059 ], [ -69.845041469999899, 44.010484117000033 ], [ -69.864572719999899, 43.997463283000059 ], [ -69.874989386999914, 43.987046617000033 ], [ -69.882801886999914, 43.976629950000074 ], [ -69.882801886999914, 43.963609117000033 ], [ -69.872385219999899, 43.958400783000059 ], [ -69.85415605399993, 43.958400783000059 ], [ -69.841135219999899, 43.966213283000059 ], [ -69.832020636999914, 43.974025783000059 ], [ -69.825510219999899, 43.970119533000059 ], [ -69.821603969999899, 43.961004950000074 ], [ -69.81509355399993, 43.933661200000074 ], [ -69.802235480999911, 43.860541083000044 ], [ -69.800892706999946, 43.825181382000039 ], [ -69.791940883999928, 43.791001695000034 ], [ -69.782500779999907, 43.772935289000088 ], [ -69.780384894999941, 43.763454494000086 ], [ -69.787302212999919, 43.737534898000035 ], [ -69.790638800999943, 43.733099677000041 ], [ -69.803171352999925, 43.729681708000044 ], [ -69.814239061999899, 43.721177476000037 ], [ -69.822865363999938, 43.709947007000039 ], [ -69.828155076999906, 43.698268947000088 ], [ -69.83930416599992, 43.709255276000079 ], [ -69.841826951999906, 43.740261135000083 ], [ -69.852080857999908, 43.746690171000068 ], [ -69.857899542999917, 43.754258531000062 ], [ -69.858387824999909, 43.770778713000084 ], [ -69.855498826999906, 43.793890692000048 ], [ -69.85179602799991, 43.800808010000083 ], [ -69.847035285999937, 43.803737697000088 ], [ -69.843006964999915, 43.807806708000044 ], [ -69.84125729099992, 43.818060614000046 ], [ -69.844593878999945, 43.826768296000068 ], [ -69.85960852799991, 43.836533921000068 ], [ -69.862985805999926, 43.845729885000083 ], [ -69.860218878999945, 43.856227932000081 ], [ -69.856190558999913, 43.862087307000081 ], [ -69.857126430999926, 43.865708726000037 ], [ -69.869130011999914, 43.869574286000045 ], [ -69.879261847999942, 43.87055084800005 ], [ -69.888539191999939, 43.868353583000044 ], [ -69.896839972999942, 43.863552151000079 ], [ -69.903920050999943, 43.85655345300006 ], [ -69.891713019999941, 43.851345119000086 ], [ -69.881337042999917, 43.844020901000079 ], [ -69.875355597999942, 43.832302151000079 ], [ -69.8760066399999, 43.814398505000042 ], [ -69.883005337999919, 43.800563869000086 ], [ -69.89476477799991, 43.789333401000079 ], [ -69.905629035999937, 43.787298895000049 ], [ -69.910145636999914, 43.801296291000085 ], [ -69.951120571999923, 43.760362046000068 ], [ -69.958200649999924, 43.756333726000037 ], [ -69.965280727999925, 43.754624742000033 ], [ -69.970692511999914, 43.75149160400008 ], [ -69.974354620999918, 43.734971421000068 ], [ -69.978505011999914, 43.729437567000048 ], [ -69.984852667999917, 43.726345119000086 ], [ -69.992665167999917, 43.725612697000088 ], [ -69.926299607999908, 43.828558661000045 ], [ -69.930653449999909, 43.849107164000088 ], [ -69.942128058999913, 43.841498114000046 ], [ -69.958363410999937, 43.82180410400008 ], [ -69.972767706999946, 43.799505927000041 ], [ -69.978993292999917, 43.783962307000081 ], [ -69.982940232999908, 43.76744212400007 ], [ -69.993438279999907, 43.75181712400007 ], [ -70.008900519999941, 43.741237697000088 ], [ -70.027455206999946, 43.739935614000046 ], [ -70.009470180999926, 43.766872463000084 ], [ -69.962635870999918, 43.821030992000033 ], [ -69.951120571999923, 43.849107164000088 ], [ -69.973093227999925, 43.84711334800005 ], [ -70.006377732999908, 43.827093817000048 ], [ -70.020008917999917, 43.828640041000085 ], [ -70.010853644999941, 43.833278713000084 ], [ -70.000681118999921, 43.840847072000088 ], [ -69.991688605999911, 43.850856838000084 ], [ -69.985829230999911, 43.862779039000088 ], [ -69.999379035999937, 43.861517645000049 ], [ -70.011748826999906, 43.855658270000049 ], [ -70.022328253999945, 43.84719472900008 ], [ -70.039580857999908, 43.830064195000034 ], [ -70.050038214999915, 43.823960679000038 ], [ -70.074655727999925, 43.814398505000042 ], [ -70.088002081999946, 43.811061916000085 ], [ -70.098907029999907, 43.809922593000067 ], [ -70.10883541599992, 43.806748765000066 ], [ -70.160878058999913, 43.766546942000048 ], [ -70.182606574999909, 43.757066148000035 ], [ -70.208688930999926, 43.715277411000045 ], [ -70.239125128999945, 43.700059312000064 ], [ -70.238474087999919, 43.68703847900008 ], [ -70.233754035999937, 43.673041083000044 ], [ -70.232289191999939, 43.664170640000066 ], [ -70.242949998999904, 43.653916734000063 ], [ -70.256703253999945, 43.650132554000038 ], [ -70.286854620999918, 43.650498765000066 ], [ -70.286854620999918, 43.643052476000037 ], [ -70.257761196999923, 43.64048899900007 ], [ -70.231556769999941, 43.641546942000048 ], [ -70.210886196999923, 43.635036526000079 ], [ -70.198109503999945, 43.609564520000049 ], [ -70.198231574999909, 43.598659572000088 ], [ -70.202870245999918, 43.567613023000035 ], [ -70.204945441999939, 43.561143296000068 ], [ -70.220244920999903, 43.559068101000037 ], [ -70.245838995999918, 43.549790757000039 ], [ -70.260202602999925, 43.547471421000068 ], [ -70.255889451999906, 43.554388739000046 ], [ -70.252715623999904, 43.561143296000068 ], [ -70.271514451999906, 43.556911526000079 ], [ -70.292591925999943, 43.534531968000067 ], [ -70.307972785999937, 43.526963609000063 ], [ -70.310536261999914, 43.54836660400008 ], [ -70.325428839999915, 43.549546617000033 ], [ -70.343739386999914, 43.539496161000045 ], [ -70.356434699999909, 43.526963609000063 ], [ -70.367380337999919, 43.50531647300005 ], [ -70.370716925999943, 43.486354885000083 ], [ -70.368397589999915, 43.467230536000045 ], [ -70.362578904999907, 43.445054429000038 ], [ -70.34321041599992, 43.454291083000044 ], [ -70.332793748999904, 43.457546291000085 ], [ -70.321644660999937, 43.458726304000038 ], [ -70.321644660999937, 43.452500718000067 ], [ -70.335235154999907, 43.447292385000083 ], [ -70.346913214999915, 43.439439195000034 ], [ -70.366403774999924, 43.420843817000048 ], [ -70.369496222999942, 43.415513414000088 ], [ -70.373524542999917, 43.40188222900008 ], [ -70.376250779999907, 43.397243557000081 ], [ -70.382435675999943, 43.393744208000044 ], [ -70.395049607999908, 43.392604885000083 ], [ -70.403553839999915, 43.389837958000044 ], [ -70.422596808999913, 43.376898505000042 ], [ -70.437692837999919, 43.362982489000046 ], [ -70.454457160999937, 43.350612697000088 ], [ -70.478708462999919, 43.342637437000064 ], [ -70.508737758999928, 43.341498114000046 ], [ -70.519520636999914, 43.339544989000046 ], [ -70.530497541870147, 43.331778533156829 ], [ -70.561879035999937, 43.301052151000079 ], [ -70.57054602799991, 43.298488674000055 ], [ -70.581654425999943, 43.274888414000088 ], [ -70.583119269999941, 43.250881252000056 ], [ -70.568918423999946, 43.228989976000037 ], [ -70.583607550999943, 43.213934637000079 ], [ -70.596791144999941, 43.195461330000057 ], [ -70.582590298999946, 43.188625393000052 ], [ -70.599517381999931, 43.182237046000068 ], [ -70.611724412999934, 43.173000393000052 ], [ -70.630970831999946, 43.147080796000068 ], [ -70.660145636999914, 43.094142971000053 ], [ -70.671945766999897, 43.085598049000055 ], [ -70.687123175999943, 43.092149156000062 ], [ -70.700306769999941, 43.108465887000079 ], [ -70.714670376999948, 43.121934312000064 ], [ -70.733387824999909, 43.120428778000075 ], [ -70.731271938999953, 43.114650783000059 ], [ -70.742339647999927, 43.087958075000074 ], [ -70.744089321999923, 43.083807684000078 ], [ -70.754505988999938, 43.058986721000053 ], [ -70.732492641999897, 43.063299872000073 ], [ -70.709543423999946, 43.065171617000033 ], [ -70.704213019999941, 43.05890534100007 ], [ -70.708485480999911, 43.04523346600007 ], [ -70.715891079999949, 43.032171942000048 ], [ -70.719715949999909, 43.027573960000041 ], [ -70.728382941999939, 43.011297919000071 ], [ -70.781809048999946, 42.949123440000051 ], [ -70.803293423999946, 42.913885809000078 ], [ -70.811879035999937, 42.893133856000077 ], [ -70.814281248980421, 42.877295447426945 ], [ -70.815337693999936, 42.870266018000052 ], [ -70.807240363999938, 42.834947007000039 ], [ -70.809152798999946, 42.826239325000074 ], [ -70.818267381999931, 42.823919989000046 ], [ -70.863758917999917, 42.826239325000074 ], [ -70.853627081999946, 42.816961981000077 ], [ -70.844146287999934, 42.811997789000088 ], [ -70.822743292999917, 42.804429429000038 ], [ -70.820220506999931, 42.804348049000055 ], [ -70.812652147999927, 42.805243231000077 ], [ -70.809152798999946, 42.804429429000038 ], [ -70.805775519999941, 42.801255601000037 ], [ -70.800770636999914, 42.792547919000071 ], [ -70.804351365999935, 42.78038157800006 ], [ -70.775095180999926, 42.71633535400008 ], [ -70.782622850999928, 42.708929755000042 ], [ -70.812408006999931, 42.742132880000042 ], [ -70.823597785999937, 42.74986399900007 ], [ -70.819610154999907, 42.718736070000034 ], [ -70.798451300999943, 42.701890367000033 ], [ -70.741607225999928, 42.681626695000034 ], [ -70.757110154999907, 42.675482489000046 ], [ -70.765288865999935, 42.674302476000037 ], [ -70.775095180999926, 42.674790757000039 ], [ -70.757110154999907, 42.657212632000039 ], [ -70.701324022999927, 42.653306382000039 ], [ -70.700062628999945, 42.640611070000034 ], [ -70.68228105399993, 42.632188218000067 ], [ -70.677683071999923, 42.641343492000033 ], [ -70.679554816999939, 42.667954820000034 ], [ -70.671416795999903, 42.677110093000067 ], [ -70.658965623999904, 42.684312242000033 ], [ -70.631743943999936, 42.694606838000084 ], [ -70.633656378999945, 42.680039781000062 ], [ -70.6299128899999, 42.672064520000049 ], [ -70.621245897999927, 42.668687242000033 ], [ -70.607858852999925, 42.667954820000034 ], [ -70.598052537999934, 42.664984442000048 ], [ -70.599395311999899, 42.657700914000088 ], [ -70.60220292899993, 42.648667710000041 ], [ -70.597035285999937, 42.640611070000034 ], [ -70.597035285999937, 42.634466864000046 ], [ -70.611480272999927, 42.634507554000038 ], [ -70.618438279999907, 42.628851630000042 ], [ -70.623443162999934, 42.620469468000067 ], [ -70.631743943999936, 42.61273834800005 ], [ -70.642486131999931, 42.606675523000035 ], [ -70.647328253999945, 42.604518947000088 ], [ -70.665882941999939, 42.606472072000088 ], [ -70.666940883999928, 42.60850657800006 ], [ -70.669097459999932, 42.611680406000062 ], [ -70.674753383999928, 42.612290757000039 ], [ -70.686390753999945, 42.606472072000088 ], [ -70.695668097999942, 42.597398179000038 ], [ -70.701324022999927, 42.588568427000041 ], [ -70.708892381999931, 42.581813869000086 ], [ -70.810292120999918, 42.56281159100007 ], [ -70.861398891999897, 42.546942450000074 ], [ -70.878000454999949, 42.537543036000045 ], [ -70.870594855999911, 42.53070709800005 ], [ -70.878895636999914, 42.525946356000077 ], [ -70.885121222999942, 42.519964911000045 ], [ -70.88931230399993, 42.512274481000077 ], [ -70.891672329999949, 42.502752997000073 ], [ -70.877797003999945, 42.507879950000074 ], [ -70.864328579999949, 42.518296617000033 ], [ -70.854115363999938, 42.523667710000041 ], [ -70.850087042999917, 42.513657945000034 ], [ -70.840321417999917, 42.504868882000039 ], [ -70.83820553299995, 42.499172268000052 ], [ -70.846750454999949, 42.496568101000037 ], [ -70.855295376999948, 42.495062567000048 ], [ -70.860747850999928, 42.491359768000052 ], [ -70.865223761999914, 42.486883856000077 ], [ -70.885121222999942, 42.472845770000049 ], [ -70.891672329999949, 42.469305731000077 ], [ -70.899403449999909, 42.468166408000059 ], [ -70.915516730999911, 42.469427802000041 ], [ -70.92210852799991, 42.465562242000033 ], [ -70.925404425999943, 42.453192450000074 ], [ -70.917551235999952, 42.442775783000059 ], [ -70.904286261999914, 42.434393622000073 ], [ -70.891672329999949, 42.428290106000077 ], [ -70.916371222999942, 42.422430731000077 ], [ -70.94367428299995, 42.446966864000046 ], [ -70.963042772999927, 42.438299872000073 ], [ -70.973378058999913, 42.425116278000075 ], [ -70.974354620999918, 42.416449286000045 ], [ -70.966175910999937, 42.400376695000034 ], [ -70.963042772999927, 42.37836334800005 ], [ -70.960316535999937, 42.369045315000051 ], [ -70.952504035999937, 42.359442450000074 ], [ -70.967274542999917, 42.360744533000059 ], [ -70.983631964999915, 42.376613674000055 ], [ -70.997181769999941, 42.380560614000046 ], [ -71.007232225999928, 42.37759023600006 ], [ -71.005848761999914, 42.370794989000046 ], [ -70.997670050999943, 42.363674221000053 ], [ -70.987212693999936, 42.359442450000074 ], [ -71.006011522999927, 42.357123114000046 ], [ -71.022694464999915, 42.36664459800005 ], [ -71.036854620999918, 42.372463283000059 ], [ -71.048695441999939, 42.359442450000074 ], [ -71.03742428299995, 42.357001044000071 ], [ -71.027699347999942, 42.353583075000074 ], [ -71.020008917999917, 42.34796784100007 ], [ -71.014556443999936, 42.338934637000079 ], [ -71.029855923999946, 42.337836005000042 ], [ -71.042307094999899, 42.331773179000038 ], [ -71.046783006999931, 42.321519273000035 ], [ -71.038441535999937, 42.307928778000075 ], [ -71.027211066999939, 42.300482489000046 ], [ -71.01781165299991, 42.300197658000059 ], [ -70.993478969999899, 42.310980536000045 ], [ -70.998890753999945, 42.283758856000077 ], [ -70.983509894999941, 42.27960846600007 ], [ -70.962880011999914, 42.280218817000048 ], [ -70.952504035999937, 42.267238674000055 ], [ -70.95531165299991, 42.261786200000074 ], [ -70.966175910999937, 42.253810940000051 ], [ -70.966175910999937, 42.249579169000071 ], [ -70.961781378999945, 42.246242580000057 ], [ -70.95531165299991, 42.243312893000052 ], [ -70.94953365799995, 42.24282461100006 ], [ -70.946888800999943, 42.246486721000053 ], [ -70.940500454999949, 42.245998440000051 ], [ -70.925770636999914, 42.250392971000053 ], [ -70.909535285999937, 42.257228908000059 ], [ -70.898508266999897, 42.263861395000049 ], [ -70.887196417999917, 42.250555731000077 ], [ -70.875396287999934, 42.254461981000077 ], [ -70.867339647999927, 42.264837958000044 ], [ -70.867095506999931, 42.270656643000052 ], [ -70.880116339999915, 42.276678778000075 ], [ -70.891916469999899, 42.290716864000046 ], [ -70.89907792899993, 42.306586005000042 ], [ -70.898508266999897, 42.318426825000074 ], [ -70.85578365799995, 42.283921617000033 ], [ -70.831410285999937, 42.269680080000057 ], [ -70.783802863999938, 42.259670315000051 ], [ -70.761586066999939, 42.249212958000044 ], [ -70.741810675999943, 42.235663153000075 ], [ -70.716297980999911, 42.211859442000048 ], [ -70.713734503999945, 42.205145575000074 ], [ -70.713490363999938, 42.175360419000071 ], [ -70.71312415299991, 42.172430731000077 ], [ -70.708363410999937, 42.17218659100007 ], [ -70.695871548999946, 42.163885809000078 ], [ -70.678212042999917, 42.144110419000071 ], [ -70.65298417899993, 42.109035549000055 ], [ -70.630970831999946, 42.092515367000033 ], [ -70.636138475999928, 42.075425523000035 ], [ -70.627756313999953, 42.059149481000077 ], [ -70.597564256999931, 42.023098049000055 ], [ -70.592193162999934, 42.020086981000077 ], [ -70.590809699999909, 42.017320054000038 ], [ -70.596791144999941, 42.010646877000056 ], [ -70.606760219999899, 42.004584052000041 ], [ -70.617298956999946, 42.003241278000075 ], [ -70.627919074999909, 42.005560614000046 ], [ -70.637806769999941, 42.010646877000056 ], [ -70.632883266999897, 42.012111721000053 ], [ -70.623605923999946, 42.016058661000045 ], [ -70.617298956999946, 42.016791083000044 ], [ -70.629302537999934, 42.044338283000059 ], [ -70.63890540299991, 42.05890534100007 ], [ -70.648345506999931, 42.065252997000073 ], [ -70.655751105999911, 42.058010158000059 ], [ -70.665109829999949, 42.010646877000056 ], [ -70.675038214999915, 42.014715887000079 ], [ -70.682850714999915, 42.016058661000045 ], [ -70.690337693999936, 42.014715887000079 ], [ -70.714833136999914, 42.002671617000033 ], [ -70.65493730399993, 41.957098700000074 ], [ -70.62368730399993, 41.955064195000034 ], [ -70.604969855999911, 41.952541408000059 ], [ -70.565825975999928, 41.95538971600007 ], [ -70.544992641999897, 41.940619208000044 ], [ -70.529652472999942, 41.906480210000041 ], [ -70.523915167999917, 41.868394273000035 ], [ -70.531646287999934, 41.841782945000034 ], [ -70.533111131999931, 41.816229559000078 ], [ -70.504261847999942, 41.790025132000039 ], [ -70.439198370999918, 41.756089585000041 ], [ -70.400868292999917, 41.745021877000056 ], [ -70.274728969999899, 41.736273505000042 ], [ -70.289865688999953, 41.731634833000044 ], [ -70.32648678299995, 41.731390692000048 ], [ -70.339507615999935, 41.725734768000052 ], [ -70.335194464999915, 41.719224351000037 ], [ -70.315256313999953, 41.715562242000033 ], [ -70.274728969999899, 41.71515534100007 ], [ -70.243723110999952, 41.724107164000088 ], [ -70.191314256999931, 41.747056382000039 ], [ -70.100819464999915, 41.76593659100007 ], [ -70.070241354999951, 41.773458363000088 ], [ -70.036447719999899, 41.785834052000041 ], [ -70.021473761999914, 41.790920315000051 ], [ -70.000111456999946, 41.816310940000051 ], [ -70.003845379999916, 41.846296257000063 ], [ -70.001820441999939, 41.881903387000079 ], [ -70.021473761999914, 41.906927802000041 ], [ -70.011586066999939, 41.90688711100006 ], [ -70.003163214999915, 41.908596096000053 ], [ -69.986683722999942, 41.913763739000046 ], [ -69.986683722999942, 41.921210028000075 ], [ -70.006011522999927, 41.922837632000039 ], [ -70.018666144999941, 41.930080471000053 ], [ -70.028146938999953, 41.937974351000037 ], [ -70.037912563999953, 41.941636460000041 ], [ -70.051828579999949, 41.935248114000046 ], [ -70.057362433999913, 41.904242255000042 ], [ -70.06867428299995, 41.893296617000033 ], [ -70.07184060599991, 41.927678962000073 ], [ -70.074490303999937, 41.947629265000046 ], [ -70.079790032999938, 41.995005957000046 ], [ -70.08378508699991, 42.012454048000052 ], [ -70.09985152999991, 42.03739025200008 ], [ -70.13809623599991, 42.057351722000078 ], [ -70.165618558999938, 42.063835382000036 ], [ -70.189793965999911, 42.049382909000087 ], [ -70.192128058999913, 42.037909247000073 ], [ -70.176665818999936, 42.037502346000053 ], [ -70.171620245999918, 42.037909247000073 ], [ -70.170807835999938, 42.027879022000036 ], [ -70.189274247999947, 42.017859987000065 ], [ -70.202556304999916, 42.02620317800006 ], [ -70.224615563999919, 42.050380918000087 ], [ -70.23135065699995, 42.057238427000073 ], [ -70.240090436999935, 42.059226541000044 ], [ -70.246819749999929, 42.061468091000052 ], [ -70.244311721999907, 42.068718454000077 ], [ -70.236596393999946, 42.07585514200008 ], [ -70.229376759999923, 42.080616148000047 ], [ -70.215764130999901, 42.084642532000089 ], [ -70.192219909999949, 42.086062010000035 ], [ -70.167661709999948, 42.082976925000082 ], [ -70.146466263999912, 42.081010900000081 ], [ -70.117863494999938, 42.073805360000051 ], [ -70.081197774999907, 42.058353658000044 ], [ -70.051123477999909, 42.039752634000081 ], [ -70.014011529999948, 41.998940519000087 ], [ -69.982167981999908, 41.953621164000083 ], [ -69.943255322999903, 41.857625261000067 ], [ -69.924672003999945, 41.838080145000049 ], [ -69.927723761999914, 41.834865627000056 ], [ -69.931019660999937, 41.832953192000048 ], [ -69.934681769999941, 41.832098700000074 ], [ -69.938872850999928, 41.831854559000078 ], [ -69.95335852799991, 41.840887762000079 ], [ -69.963961179999899, 41.843532877000087 ], [ -69.972035285999937, 41.839178778000075 ], [ -69.975738084999932, 41.810532945000034 ], [ -69.979847785999937, 41.797064520000049 ], [ -69.956654425999943, 41.807806708000044 ], [ -69.942005988999938, 41.806463934000078 ], [ -69.93423417899993, 41.792954820000034 ], [ -69.932525193999936, 41.741034247000073 ], [ -69.938872850999928, 41.674221096000053 ], [ -69.978138800999943, 41.681830145000049 ], [ -70.136870897999927, 41.660549221000053 ], [ -70.185292120999918, 41.660549221000053 ], [ -70.217355923999946, 41.648260809000078 ], [ -70.229644334999932, 41.646226304000038 ], [ -70.239898240999935, 41.643255927000041 ], [ -70.248524542999917, 41.635687567000048 ], [ -70.264149542999917, 41.616156317000048 ], [ -70.272775844999899, 41.610581773000035 ], [ -70.271229620999918, 41.621039130000042 ], [ -70.261057094999899, 41.646226304000038 ], [ -70.275990363999938, 41.644232489000046 ], [ -70.30304928299995, 41.634751695000034 ], [ -70.319081183999913, 41.632635809000078 ], [ -70.351958787999934, 41.635199286000045 ], [ -70.36587480399993, 41.632798570000034 ], [ -70.380848761999914, 41.622992255000042 ], [ -70.391590949999909, 41.619208075000074 ], [ -70.405873175999943, 41.637518622000073 ], [ -70.418080206999946, 41.640041408000059 ], [ -70.42837480399993, 41.631903387000079 ], [ -70.459095831999946, 41.591620184000078 ], [ -70.479847785999937, 41.573879299000055 ], [ -70.504261847999942, 41.563706773000035 ], [ -70.532704230999911, 41.559149481000077 ], [ -70.565825975999928, 41.558172919000071 ], [ -70.596058722999942, 41.55304596600007 ], [ -70.658681674999912, 41.521349108000038 ], [ -70.685617641999897, 41.530829169000071 ], [ -70.661732550999943, 41.550482489000046 ], [ -70.652495897999927, 41.578029690000051 ], [ -70.652007615999935, 41.654242255000042 ], [ -70.657093878999945, 41.67055898600006 ], [ -70.658273891999897, 41.684475002000056 ], [ -70.652007615999935, 41.693915106000077 ], [ -70.639963344999899, 41.702297268000052 ], [ -70.631906704999949, 41.711127020000049 ], [ -70.637806769999941, 41.721991278000075 ], [ -70.628163214999915, 41.728094794000071 ], [ -70.623605923999946, 41.729437567000048 ], [ -70.630604620999918, 41.740139065000051 ], [ -70.640004035999937, 41.740952867000033 ], [ -70.648182745999918, 41.734198309000078 ], [ -70.651437954999949, 41.721991278000075 ], [ -70.658273891999897, 41.721991278000075 ], [ -70.689808722999942, 41.73969147300005 ], [ -70.710438605999911, 41.748032945000034 ], [ -70.719715949999909, 41.746161200000074 ], [ -70.72329667899993, 41.713771877000056 ], [ -70.721913214999915, 41.701605536000045 ], [ -70.712880011999914, 41.68781159100007 ], [ -70.739328579999949, 41.690130927000041 ], [ -70.749094204999949, 41.679754950000074 ], [ -70.75609290299991, 41.663031317000048 ], [ -70.774322068999936, 41.646226304000038 ], [ -70.786040818999936, 41.66046784100007 ], [ -70.797840949999909, 41.658880927000041 ], [ -70.805734829999949, 41.65102773600006 ], [ -70.805734829999949, 41.646226304000038 ], [ -70.80500240799995, 41.642564195000034 ], [ -70.821115688999953, 41.634995835000041 ], [ -70.840565558999913, 41.628892320000034 ], [ -70.850087042999917, 41.62954336100006 ], [ -70.84398352799991, 41.603949286000045 ], [ -70.845204230999911, 41.592474677000041 ], [ -70.856922980999911, 41.591620184000078 ], [ -70.862904425999943, 41.597235419000071 ], [ -70.869984503999945, 41.61587148600006 ], [ -70.874256964999915, 41.622992255000042 ], [ -70.881011522999927, 41.627915757000039 ], [ -70.905384894999941, 41.640041408000059 ], [ -70.907338019999941, 41.614935614000046 ], [ -70.920969204999949, 41.598334052000041 ], [ -70.931630011999914, 41.580267645000049 ], [ -70.925160285999937, 41.550726630000042 ], [ -70.947621222999942, 41.536444403000075 ], [ -70.959706183999913, 41.531195380000042 ], [ -70.973622199999909, 41.530829169000071 ], [ -70.972238735999952, 41.535101630000042 ], [ -70.97093665299991, 41.537665106000077 ], [ -71.015451626999948, 41.512274481000077 ], [ -71.040150519999941, 41.507147528000075 ], [ -71.069813605999911, 41.517157294000071 ], [ -71.04946855399993, 41.52374909100007 ], [ -71.043853318999936, 41.536851304000038 ], [ -71.049305792999917, 41.551947333000044 ], [ -71.062367316999939, 41.564357815000051 ], [ -71.062123175999943, 41.543850002000056 ], [ -71.073719855999911, 41.538723049000055 ], [ -71.110747850999928, 41.543850002000056 ], [ -71.101551886999914, 41.528306382000039 ], [ -71.097157355999911, 41.523382880000042 ], [ -71.121896938999953, 41.513006903000075 ], [ -71.185902472999942, 41.468736070000034 ], [ -71.199126756999931, 41.492132880000042 ], [ -71.202015753999945, 41.502630927000041 ], [ -71.196400519999941, 41.513413804000038 ], [ -71.195668097999942, 41.520819403000075 ], [ -71.206939256999931, 41.558172919000071 ], [ -71.210519985999952, 41.602240302000041 ], [ -71.209706183999913, 41.626166083000044 ], [ -71.206939256999931, 41.646226304000038 ], [ -71.193961003597451, 41.676861492763635 ], [ -71.190256313999953, 41.685614325000074 ], [ -71.135568813999953, 41.755519924000055 ], [ -71.110747850999928, 41.797064520000049 ], [ -71.126047329999949, 41.79242584800005 ], [ -71.138091600999928, 41.77993398600006 ], [ -71.169545050999943, 41.733303127000056 ], [ -71.176258917999917, 41.726629950000074 ], [ -71.185902472999942, 41.721991278000075 ], [ -71.207997199999909, 41.72915273600006 ], [ -71.221058722999942, 41.731390692000048 ], [ -71.22687740799995, 41.725734768000052 ], [ -71.228993292999917, 41.720933335000041 ], [ -71.236858303667759, 41.709563686914578 ], [ -71.238392706999946, 41.70734284100007 ], [ -71.24054928299995, 41.698065497000073 ], [ -71.240223761999914, 41.684637762000079 ], [ -71.241037563999953, 41.681219794000071 ], [ -71.244862433999913, 41.68032461100006 ], [ -71.26040605399993, 41.651109117000033 ], [ -71.285715298999946, 41.65961334800005 ], [ -71.301828579999949, 41.65961334800005 ], [ -71.30882727799991, 41.670803127000056 ], [ -71.306752081999946, 41.684719143000052 ], [ -71.301503058999913, 41.702622789000088 ], [ -71.294056769999941, 41.72016022300005 ], [ -71.280913865999935, 41.741400458000044 ], [ -71.283029751999948, 41.748846747000073 ], [ -71.28970292899993, 41.754095770000049 ], [ -71.298817511999914, 41.756089585000041 ], [ -71.301991339999915, 41.751695054000038 ], [ -71.304432745999918, 41.730047919000071 ], [ -71.30882727799991, 41.721991278000075 ], [ -71.318186001999948, 41.724798895000049 ], [ -71.337066209999932, 41.733791408000059 ], [ -71.355620897999927, 41.746283270000049 ], [ -71.364003058999913, 41.759833075000074 ], [ -71.365589972999942, 41.77765534100007 ], [ -71.370350714999915, 41.792059637000079 ], [ -71.378814256999931, 41.80499909100007 ], [ -71.391346808999913, 41.818793036000045 ], [ -71.395008917999917, 41.805731512000079 ], [ -71.396311001999948, 41.783270575000074 ], [ -71.395090298999946, 41.759507554000038 ], [ -71.391346808999913, 41.74249909100007 ], [ -71.384755011999914, 41.735663153000075 ], [ -71.375599738999938, 41.730536200000074 ], [ -71.36750240799995, 41.723822333000044 ], [ -71.364003058999913, 41.712062893000052 ], [ -71.366851365999935, 41.703558661000045 ], [ -71.380279100999928, 41.683661200000074 ], [ -71.384429490999935, 41.674221096000053 ], [ -71.391468878999945, 41.683010158000059 ], [ -71.398426886999914, 41.68976471600007 ], [ -71.40689042899993, 41.693833726000037 ], [ -71.41860917899993, 41.694647528000075 ], [ -71.430246548999946, 41.691107489000046 ], [ -71.44163977799991, 41.684068101000037 ], [ -71.446766730999911, 41.677232164000088 ], [ -71.423329230999911, 41.668158270000049 ], [ -71.413807745999918, 41.652899481000077 ], [ -71.410267706999946, 41.632961330000057 ], [ -71.412464972999942, 41.61273834800005 ], [ -71.423695441999939, 41.594305731000077 ], [ -71.437367316999939, 41.584784247000073 ], [ -71.442779100999928, 41.574652411000045 ], [ -71.429514126999948, 41.554388739000046 ], [ -71.424631313999953, 41.538885809000078 ], [ -71.423410610999952, 41.486395575000074 ], [ -71.42609615799995, 41.468736070000034 ], [ -71.454791809999904, 41.406131900000048 ], [ -71.469618487999924, 41.391331281000078 ], [ -71.483957485999952, 41.379950262000079 ], [ -71.488270636999914, 41.370591539000088 ], [ -71.497710740999935, 41.366278387000079 ], [ -71.507801886999914, 41.368109442000048 ], [ -71.530384894999941, 41.376450914000088 ], [ -71.555828068999915, 41.374845528000037 ], [ -71.598884489999932, 41.367522493000081 ], [ -71.753814256999931, 41.331040757000039 ], [ -71.828972493999913, 41.316984425000044 ], [ -71.871474674999945, 41.302575088000083 ], [ -71.87791399799994, 41.311512218000075 ], [ -71.860423791641082, 41.320502061427604 ], [ -71.856534003999911, 41.322501385000066 ], [ -71.862375454999949, 41.332586981000077 ], [ -71.872141079999949, 41.339260158000059 ] ] ], [ [ [ -71.233631964999915, 41.530829169000071 ], [ -71.235096808999913, 41.51898834800005 ], [ -71.237538214999915, 41.509507554000038 ], [ -71.238026495999918, 41.50031159100007 ], [ -71.233631964999915, 41.489203192000048 ], [ -71.264800584999932, 41.496079820000034 ], [ -71.285959438999953, 41.482001044000071 ], [ -71.303212042999917, 41.466376044000071 ], [ -71.323068813999953, 41.468736070000034 ], [ -71.334950324999909, 41.459051825000074 ], [ -71.346180792999917, 41.454738674000055 ], [ -71.354562954999949, 41.458319403000075 ], [ -71.357818162999934, 41.472479559000078 ], [ -71.351307745999918, 41.477850653000075 ], [ -71.319976365999935, 41.488470770000049 ], [ -71.30882727799991, 41.495428778000075 ], [ -71.321359829999949, 41.508530992000033 ], [ -71.325550910999937, 41.519964911000045 ], [ -71.322255011999914, 41.530422268000052 ], [ -71.312489386999914, 41.540757554000038 ], [ -71.309152798999946, 41.546087958000044 ], [ -71.308176235999952, 41.553168036000045 ], [ -71.30882727799991, 41.567775783000059 ], [ -71.305775519999941, 41.57172272300005 ], [ -71.291086391999897, 41.578273830000057 ], [ -71.285511847999942, 41.581732489000046 ], [ -71.279449022999927, 41.593085028000075 ], [ -71.273589647999927, 41.620998440000051 ], [ -71.26781165299991, 41.632635809000078 ], [ -71.257801886999914, 41.640692450000074 ], [ -71.23273678299995, 41.652777411000045 ], [ -71.220611131999931, 41.660549221000053 ], [ -71.220611131999931, 41.640041408000059 ], [ -71.232574022999927, 41.605902411000045 ], [ -71.233631964999915, 41.530829169000071 ] ] ], [ [ [ -71.343739386999914, 41.670640367000033 ], [ -71.335926886999914, 41.657619533000059 ], [ -71.33071855399993, 41.647202867000033 ], [ -71.317697719999899, 41.632879950000074 ], [ -71.30337480399993, 41.626369533000059 ], [ -71.304676886999914, 41.604234117000033 ], [ -71.31509355399993, 41.580796617000033 ], [ -71.33071855399993, 41.575588283000059 ], [ -71.337228969999899, 41.582098700000074 ], [ -71.337228969999899, 41.592515367000033 ], [ -71.33071855399993, 41.610744533000059 ], [ -71.335926886999914, 41.626369533000059 ], [ -71.356760219999899, 41.631577867000033 ], [ -71.359364386999914, 41.641994533000059 ], [ -71.355458136999914, 41.660223700000074 ], [ -71.343739386999914, 41.670640367000033 ] ] ], [ [ [ -70.830471037999928, 41.260365562000061 ], [ -70.821934590999945, 41.260392670000044 ], [ -70.814020616999926, 41.263167429000077 ], [ -70.809126441999922, 41.259514254000067 ], [ -70.801797508999925, 41.256784545000073 ], [ -70.801756294999905, 41.248076234000052 ], [ -70.810902549999923, 41.248045805000061 ], [ -70.823108236999929, 41.250759965000043 ], [ -70.832282438999925, 41.256691798000077 ], [ -70.830471037999928, 41.260365562000061 ] ] ], [ [ [ -70.001129883999909, 41.239256614000055 ], [ -70.043038490999947, 41.243333906000089 ], [ -70.097596060999933, 41.24182963800007 ], [ -70.137745228999904, 41.24715236600008 ], [ -70.233143683999913, 41.283758856000077 ], [ -70.256348598999921, 41.292767142000059 ], [ -70.278112397999905, 41.307906609000042 ], [ -70.272358116999953, 41.311347581000064 ], [ -70.256287786999906, 41.309160085000087 ], [ -70.24081611899993, 41.300931916000081 ], [ -70.217287877999922, 41.297427132000053 ], [ -70.16105114699991, 41.292966801000034 ], [ -70.12428815699991, 41.295870942000079 ], [ -70.106800910999937, 41.29523346600007 ], [ -70.097767706999946, 41.290432033000059 ], [ -70.089711066999939, 41.289984442000048 ], [ -70.081939256999931, 41.292547919000071 ], [ -70.071400519999941, 41.301581122000073 ], [ -70.046009894999941, 41.307562567000048 ], [ -70.031402147999927, 41.317531643000052 ], [ -70.020090298999946, 41.330796617000033 ], [ -70.014027472999942, 41.344631252000056 ], [ -70.032338019999941, 41.339504299000055 ], [ -70.060292120999918, 41.316636460000041 ], [ -70.076079881999931, 41.311102606000077 ], [ -70.044300910999937, 41.350978908000059 ], [ -70.037220831999946, 41.372870184000078 ], [ -70.054149404999919, 41.392686019000053 ], [ -70.052396188999921, 41.396562483000082 ], [ -70.039745775999904, 41.394359283000085 ], [ -70.028870052999935, 41.386119721000057 ], [ -70.019202133999897, 41.370116838000058 ], [ -70.005279100999928, 41.342718817000048 ], [ -69.974964972999942, 41.30219147300005 ], [ -69.957759819999922, 41.275747900000056 ], [ -69.967149245999906, 41.249452854000083 ], [ -70.001129883999909, 41.239256614000055 ] ] ], [ [ [ -70.747670050999943, 41.331000067000048 ], [ -70.775908982999908, 41.304388739000046 ], [ -70.786407029999907, 41.30414459800005 ], [ -70.804676886999914, 41.312567450000074 ], [ -70.814971482999908, 41.320705471000053 ], [ -70.834055141999897, 41.339911200000074 ], [ -70.846221482999908, 41.346665757000039 ], [ -70.846221482999908, 41.354071356000077 ], [ -70.781971808999913, 41.354234117000033 ], [ -70.754505988999938, 41.37250397300005 ], [ -70.742176886999914, 41.384833075000074 ], [ -70.715321417999917, 41.420355536000045 ], [ -70.702626105999911, 41.427801825000074 ], [ -70.689605272999927, 41.433091539000088 ], [ -70.659901495999918, 41.456529039000088 ], [ -70.605132615999935, 41.474025783000059 ], [ -70.593006964999915, 41.471665757000039 ], [ -70.603667772999927, 41.448228257000039 ], [ -70.588775193999936, 41.454169012000079 ], [ -70.579497850999928, 41.465887762000079 ], [ -70.570423956999946, 41.473944403000075 ], [ -70.555897589999915, 41.468736070000034 ], [ -70.545765753999945, 41.453924872000073 ], [ -70.546254035999937, 41.444281317000048 ], [ -70.556548631999931, 41.436509507000039 ], [ -70.57640540299991, 41.427801825000074 ], [ -70.563343878999945, 41.418687242000033 ], [ -70.549305792999917, 41.414536851000037 ], [ -70.517404751999948, 41.41351959800005 ], [ -70.507435675999943, 41.362616278000075 ], [ -70.525013800999943, 41.359076239000046 ], [ -70.666005011999914, 41.357001044000071 ], [ -70.696278449999909, 41.351507880000042 ], [ -70.723947719999899, 41.342718817000048 ], [ -70.747670050999943, 41.331000067000048 ] ] ], [ [ [ -70.481271938999953, 41.369574286000045 ], [ -70.49478105399993, 41.382310289000088 ], [ -70.500599738999938, 41.393622137000079 ], [ -70.486927863999938, 41.40265534100007 ], [ -70.470692511999914, 41.420314846000053 ], [ -70.45571855399993, 41.429632880000042 ], [ -70.446034308999913, 41.41351959800005 ], [ -70.444935675999943, 41.382025458000044 ], [ -70.446685350999928, 41.367417710000041 ], [ -70.452870245999918, 41.358872789000088 ], [ -70.46548417899993, 41.360256252000056 ], [ -70.481271938999953, 41.369574286000045 ] ] ], [ [ [ -70.768305941999927, 41.459546233000083 ], [ -70.79081634399995, 41.449198852000052 ], [ -70.80845740399991, 41.446946159000049 ], [ -70.832950695999898, 41.442465380000044 ], [ -70.839860588999898, 41.450530765000053 ], [ -70.828125195999917, 41.457181823000042 ], [ -70.813402837999945, 41.455017817000055 ], [ -70.8026527049999, 41.463133107000033 ], [ -70.782123842999908, 41.478623419000087 ], [ -70.742966652999939, 41.500765861000048 ], [ -70.724354383999923, 41.511099655000066 ], [ -70.710638157999938, 41.51921397600006 ], [ -70.694925507999926, 41.517037162000065 ], [ -70.679194013999904, 41.510449556000083 ], [ -70.699784321999914, 41.502326750000066 ], [ -70.718398387999912, 41.491998179000063 ], [ -70.742893235999929, 41.481654371000047 ], [ -70.758565156999907, 41.475740581000082 ], [ -70.757554008999932, 41.468392619000042 ], [ -70.768305941999927, 41.459546233000083 ] ] ], [ [ [ -69.973011847999942, 41.653713283000059 ], [ -69.96507727799991, 41.651353257000039 ], [ -69.961293097999942, 41.646958726000037 ], [ -69.959950324999909, 41.640692450000074 ], [ -69.959380662999934, 41.632635809000078 ], [ -69.976226365999935, 41.612290757000039 ], [ -70.002105272999927, 41.553778387000079 ], [ -70.021473761999914, 41.550726630000042 ], [ -69.981027798999946, 41.627671617000033 ], [ -69.973011847999942, 41.653713283000059 ] ] ], [ [ [ -69.673166469999899, 43.852932033000059 ], [ -69.64712480399993, 43.837307033000059 ], [ -69.648426886999914, 43.819077867000033 ], [ -69.652333136999914, 43.790432033000059 ], [ -69.664051886999914, 43.789129950000074 ], [ -69.684885219999899, 43.811265367000033 ], [ -69.688791469999899, 43.828192450000074 ], [ -69.673166469999899, 43.852932033000059 ] ] ], [ [ [ -69.690556219999905, 43.902771367000071 ], [ -69.690673209999943, 43.902215804000036 ], [ -69.690801886999907, 43.901609117000078 ], [ -69.690941813999927, 43.900954304000038 ], [ -69.691092553999908, 43.900254367000059 ], [ -69.691253667999945, 43.899512304000041 ], [ -69.691424719999929, 43.898731117000068 ], [ -69.691605272999936, 43.897913804000041 ], [ -69.691794886999901, 43.897063367000044 ], [ -69.691993126999932, 43.896182804000034 ], [ -69.692199553999899, 43.89527511700004 ], [ -69.692413730999931, 43.894343304000074 ], [ -69.692635219999943, 43.893390367000052 ], [ -69.692863584999941, 43.892419304000043 ], [ -69.693098386999907, 43.891433117000076 ], [ -69.693339188999914, 43.890434804000051 ], [ -69.693585553999924, 43.889427367000053 ], [ -69.693837042999917, 43.888413804000038 ], [ -69.6940932199999, 43.887397117000035 ], [ -69.694353647999947, 43.886380304000056 ], [ -69.694617886999936, 43.885366367000074 ], [ -69.69488550199992, 43.884358304000045 ], [ -69.695156053999938, 43.883359117000055 ], [ -69.695429105999949, 43.882371804000059 ], [ -69.695704219999925, 43.881399367000085 ], [ -69.695980959999929, 43.880444804000035 ], [ -69.696258886999942, 43.87951111700005 ], [ -69.696537563999925, 43.878601304000085 ], [ -69.696816553999952, 43.877718367000057 ], [ -69.697095417999947, 43.876865304000034 ], [ -69.697373719999916, 43.876045117000047 ], [ -69.697651022999935, 43.87526080400005 ], [ -69.697926886999937, 43.874515367000072 ], [ -69.69820087699992, 43.87381180400007 ], [ -69.69847255399992, 43.873153117000072 ], [ -69.6987414809999, 43.872542304000035 ], [ -69.699007219999942, 43.871982367000044 ], [ -69.69926933499994, 43.871476304000055 ], [ -69.699527386999932, 43.87102711700004 ], [ -69.699780938999936, 43.870637804000069 ], [ -69.700029553999912, 43.870311367000056 ], [ -69.700272792999954, 43.870050804000073 ], [ -69.700510219999899, 43.869859117000033 ], [ -69.701009136999915, 43.869522450000034 ], [ -69.701280001999919, 43.869336929000042 ], [ -69.701564053999903, 43.869140783000034 ], [ -69.701860480999926, 43.868934637000052 ], [ -69.702168469999947, 43.868719117000069 ], [ -69.702487209999902, 43.868494846000033 ], [ -69.702815886999929, 43.868262450000088 ], [ -69.703153688999919, 43.868022554000049 ], [ -69.703499803999932, 43.86777578300007 ], [ -69.703853417999937, 43.867522762000078 ], [ -69.704213719999927, 43.867264117000047 ], [ -69.704579897999906, 43.86700047100004 ], [ -69.70495113699991, 43.866732450000086 ], [ -69.70532662699992, 43.866460679000056 ], [ -69.705705553999906, 43.866185783000049 ], [ -69.706087105999927, 43.865908387000047 ], [ -69.706470469999942, 43.865629117000083 ], [ -69.706854834999945, 43.865348596000047 ], [ -69.707239386999902, 43.865067450000083 ], [ -69.707623313999932, 43.864786304000063 ], [ -69.708005803999924, 43.864505783000084 ], [ -69.708386042999905, 43.864226512000073 ], [ -69.708763219999923, 43.863949117000061 ], [ -69.709136522999927, 43.863674221000053 ], [ -69.709505136999951, 43.863402450000081 ], [ -69.709868251999922, 43.86313442900007 ], [ -69.71022505399992, 43.862870783000062 ], [ -69.710574730999951, 43.862612137000042 ], [ -69.710916469999916, 43.86235911700004 ], [ -69.71124945999992, 43.86211234600006 ], [ -69.711572886999932, 43.861872450000078 ], [ -69.711885938999899, 43.861640054000077 ], [ -69.712187803999939, 43.861415783000041 ], [ -69.712477667999906, 43.861200262000068 ], [ -69.712754719999907, 43.860994117000075 ], [ -69.713018147999946, 43.860797971000068 ], [ -69.713267136999946, 43.860612450000076 ], [ -69.713500876999944, 43.860438179000084 ], [ -69.713718553999911, 43.860275783000077 ], [ -69.713919355999906, 43.860125887000038 ], [ -69.714102469999943, 43.859989117000055 ], [ -69.714267084999904, 43.859866096000076 ], [ -69.714412386999925, 43.859757450000075 ], [ -69.714537563999897, 43.859663804000036 ], [ -69.714641803999939, 43.859585783000057 ], [ -69.714724292999904, 43.859524012000065 ], [ -69.714833136999914, 43.859442450000074 ], [ -69.72134355399993, 43.872463283000059 ], [ -69.730458136999914, 43.890692450000074 ], [ -69.722645636999914, 43.907619533000059 ], [ -69.700510219999899, 43.927150783000059 ], [ -69.69399980399993, 43.945379950000074 ], [ -69.67837480399993, 43.967515367000033 ], [ -69.669260219999899, 43.955796617000033 ], [ -69.669260219999899, 43.942775783000059 ], [ -69.680978969999899, 43.933661200000074 ], [ -69.69009355399993, 43.905015367000033 ], [ -69.690124219999916, 43.904863117000048 ], [ -69.690161897999928, 43.904677304000074 ], [ -69.690213886999913, 43.904422367000052 ], [ -69.690279751999924, 43.904101304000051 ], [ -69.690359053999941, 43.903717117000042 ], [ -69.690451355999926, 43.903272804000039 ], [ -69.690556219999905, 43.902771367000071 ] ] ], [ [ [ -68.640614386999914, 44.078192450000074 ], [ -68.626291469999899, 44.091213283000059 ], [ -68.606760219999899, 44.088609117000033 ], [ -68.601551886999914, 44.070379950000074 ], [ -68.598947719999899, 44.046942450000074 ], [ -68.60806230399993, 44.023504950000074 ], [ -68.634103969999899, 44.018296617000033 ], [ -68.656239386999914, 44.010484117000033 ], [ -68.66274980399993, 44.019598700000074 ], [ -68.660145636999914, 44.032619533000059 ], [ -68.653635219999899, 44.052150783000059 ], [ -68.65103105399993, 44.065171617000033 ], [ -68.640614386999914, 44.078192450000074 ] ] ], [ [ [ -68.869252081999946, 44.04836660400008 ], [ -68.860096808999913, 44.065212307000081 ], [ -68.868031378999945, 44.079372463000084 ], [ -68.886748826999906, 44.089870510000083 ], [ -68.910186326999906, 44.095526434000078 ], [ -68.901560024999924, 44.114040432000081 ], [ -68.884144660999937, 44.113836981000077 ], [ -68.848133917999917, 44.095526434000078 ], [ -68.827381964999915, 44.089789130000042 ], [ -68.782744920999903, 44.084662177000041 ], [ -68.772979295999903, 44.08189524900007 ], [ -68.774647589999915, 44.061875718000067 ], [ -68.786732550999943, 44.052354234000063 ], [ -68.800567186999899, 44.046576239000046 ], [ -68.807118292999917, 44.037543036000045 ], [ -68.8154597649999, 44.031927802000041 ], [ -68.834584113999938, 44.035101630000042 ], [ -68.869252081999946, 44.04836660400008 ] ] ], [ [ [ -68.92837480399993, 44.141994533000059 ], [ -68.88931230399993, 44.164129950000074 ], [ -68.856760219999899, 44.181057033000059 ], [ -68.820301886999914, 44.178452867000033 ], [ -68.81118730399993, 44.169338283000059 ], [ -68.81118730399993, 44.148504950000074 ], [ -68.824208136999914, 44.144598700000074 ], [ -68.841135219999899, 44.138088283000059 ], [ -68.851551886999914, 44.125067450000074 ], [ -68.863270636999914, 44.119859117000033 ], [ -68.888010219999899, 44.130275783000059 ], [ -68.90103105399993, 44.134182033000059 ], [ -68.919260219999899, 44.125067450000074 ], [ -68.937489386999914, 44.105536200000074 ], [ -68.942697719999899, 44.117254950000074 ], [ -68.94009355399993, 44.125067450000074 ], [ -68.92837480399993, 44.141994533000059 ] ] ], [ [ [ -68.47524980399993, 44.166734117000033 ], [ -68.472645636999914, 44.177150783000059 ], [ -68.45962480399993, 44.184963283000059 ], [ -68.44399980399993, 44.181057033000059 ], [ -68.438791469999899, 44.174546617000033 ], [ -68.427072719999899, 44.175848700000074 ], [ -68.41665605399993, 44.182359117000033 ], [ -68.402333136999914, 44.175848700000074 ], [ -68.390614386999914, 44.162827867000033 ], [ -68.391916469999899, 44.145900783000059 ], [ -68.403635219999899, 44.134182033000059 ], [ -68.43228105399993, 44.128973700000074 ], [ -68.442697719999899, 44.144598700000074 ], [ -68.454416469999899, 44.151109117000033 ], [ -68.46353105399993, 44.149807033000059 ], [ -68.489572719999899, 44.140692450000074 ], [ -68.50259355399993, 44.148504950000074 ], [ -68.50649980399993, 44.160223700000074 ], [ -68.492176886999914, 44.169338283000059 ], [ -68.47524980399993, 44.166734117000033 ] ] ], [ [ [ -68.622792120999918, 44.177516994000086 ], [ -68.622792120999918, 44.17133209800005 ], [ -68.662058071999923, 44.156195380000042 ], [ -68.681996222999942, 44.152614651000079 ], [ -68.716338670999903, 44.167344468000067 ], [ -68.720204230999911, 44.172145901000079 ], [ -68.714629686999899, 44.181219794000071 ], [ -68.710886196999923, 44.190456447000088 ], [ -68.713327602999925, 44.200995184000078 ], [ -68.724598761999914, 44.21906159100007 ], [ -68.71625729099992, 44.218451239000046 ], [ -68.698923305999926, 44.219671942000048 ], [ -68.6904597649999, 44.21906159100007 ], [ -68.695057745999918, 44.228623765000066 ], [ -68.696766730999911, 44.239528713000084 ], [ -68.695301886999914, 44.250433661000045 ], [ -68.6904597649999, 44.260036526000079 ], [ -68.678944464999915, 44.269639390000066 ], [ -68.667469855999911, 44.270127671000068 ], [ -68.642079230999911, 44.260036526000079 ], [ -68.623076951999906, 44.24986399900007 ], [ -68.616485154999907, 44.237087307000081 ], [ -68.6142878899999, 44.223985093000067 ], [ -68.608509894999941, 44.212836005000042 ], [ -68.620106574999909, 44.20844147300005 ], [ -68.644317186999899, 44.203192450000074 ], [ -68.656361456999946, 44.199164130000042 ], [ -68.65062415299991, 44.190293687000064 ], [ -68.643055792999917, 44.184637762000079 ], [ -68.622792120999918, 44.177516994000086 ] ] ], [ [ [ -68.90103105399993, 44.280015367000033 ], [ -68.92056230399993, 44.237046617000033 ], [ -68.933583136999914, 44.235744533000059 ], [ -68.933583136999914, 44.243557033000059 ], [ -68.927072719999899, 44.266994533000059 ], [ -68.92446855399993, 44.281317450000074 ], [ -68.941395636999914, 44.281317450000074 ], [ -68.942697719999899, 44.290432033000059 ], [ -68.92446855399993, 44.307359117000033 ], [ -68.90103105399993, 44.311265367000033 ], [ -68.88540605399993, 44.299546617000033 ], [ -68.90103105399993, 44.280015367000033 ] ] ], [ [ [ -68.3, 44.246474720697883 ], [ -68.308786587999919, 44.237860419000071 ], [ -68.326039191999939, 44.225897528000075 ], [ -68.341297980999911, 44.223578192000048 ], [ -68.347849087999919, 44.240179755000042 ], [ -68.352284308999913, 44.238063869000086 ], [ -68.363758917999917, 44.234727281000062 ], [ -68.368356899999924, 44.23273346600007 ], [ -68.380116339999915, 44.246446031000062 ], [ -68.414051886999914, 44.258612372000073 ], [ -68.423573370999918, 44.274278062000064 ], [ -68.408477342999902, 44.278347072000088 ], [ -68.405466274999924, 44.285264390000066 ], [ -68.412383592999902, 44.291856187000064 ], [ -68.427276170999903, 44.29478587400007 ], [ -68.434803839999915, 44.299994208000044 ], [ -68.433867967999902, 44.31203847900008 ], [ -68.4287410149999, 44.32571035400008 ], [ -68.410104946999923, 44.360052802000041 ], [ -68.401356574999909, 44.371771552000041 ], [ -68.392567511999914, 44.376735744000086 ], [ -68.378936326999906, 44.379502671000068 ], [ -68.367461717999902, 44.386419989000046 ], [ -68.3642878899999, 44.395331122000073 ], [ -68.375762498999904, 44.404079494000086 ], [ -68.354969855999911, 44.42328522300005 ], [ -68.315907355999911, 44.43695709800005 ], [ -68.3, 44.437838263520462 ], [ -68.3, 44.303751183247577 ], [ -68.30687415299991, 44.308417059000078 ], [ -68.313710089999915, 44.308417059000078 ], [ -68.320098436999899, 44.284938869000086 ], [ -68.309437628999945, 44.27094147300005 ], [ -68.3, 44.263759378057514 ], [ -68.3, 44.246474720697883 ] ] ], [ [ [ -68.511708136999914, 44.378973700000074 ], [ -68.50259355399993, 44.380275783000059 ], [ -68.496083136999914, 44.376369533000059 ], [ -68.492176886999914, 44.364650783000059 ], [ -68.489572719999899, 44.347723700000074 ], [ -68.48696855399993, 44.334702867000033 ], [ -68.47524980399993, 44.324286200000074 ], [ -68.484364386999914, 44.313869533000059 ], [ -68.497385219999899, 44.320379950000074 ], [ -68.509103969999899, 44.322984117000033 ], [ -68.52212480399993, 44.322984117000033 ], [ -68.52993730399993, 44.330796617000033 ], [ -68.52993730399993, 44.345119533000059 ], [ -68.524728969999899, 44.359442450000074 ], [ -68.519520636999914, 44.367254950000074 ], [ -68.511708136999914, 44.378973700000074 ] ] ], [ [ [ -68.859364386999914, 44.358140367000033 ], [ -68.868478969999899, 44.347723700000074 ], [ -68.88540605399993, 44.330796617000033 ], [ -68.903635219999899, 44.319077867000033 ], [ -68.91665605399993, 44.332098700000074 ], [ -68.91665605399993, 44.345119533000059 ], [ -68.911447719999899, 44.365952867000033 ], [ -68.899728969999899, 44.377671617000033 ], [ -68.884103969999899, 44.391994533000059 ], [ -68.868478969999899, 44.381577867000033 ], [ -68.859364386999914, 44.358140367000033 ] ] ] ] } }
]
}
